{
"type": "FeatureCollection",
"name": "SJO_fire_2024",
"crs": { "type": "name", "properties": { "name": "urn:ogc:def:crs:EPSG::32719" } },
"features": [
{ "type": "Feature", "properties": { "fid": 24675, "FUENTE": "Servicio Nacional Forestal y de Fauna Silvestre", "DOCREG": null, "FECREG": null, "OBSERV": null, "ZONUTM": 19, "ORIGEN": 0, "REFER": null, "ANNO": "2024", "MES": "04", "DIA": null, "CODPIF": null, "CODRIF": null, "CODOIF": "OIF_PUN_20240910", "CODSIN": null, "SUPIND": 23.85, "NOMDEP": "PUNO", "NOMPRO": "SANDIA", "NOMDIS": "SAN JUAN DEL ORO", "CATDEP": "21", "CATPRO": "2112", "CATDIS": "211207", "VERAFECT": 0.0, "FFECHA": null, "created_us": "MGALAN", "created_da": "2025-06-11", "last_edite": "JMONTALBAN", "last_edi_1": "2025-10-09", "Shape_STAr": 1.99838730287e-05, "Shape_STLe": 0.042571625327599998 }, "geometry": { "type": "MultiPolygon", "coordinates": [ [ [ [ 489866.483947781729512, 8433660.73124710470438 ], [ 489869.049959380237851, 8433658.102949824184179 ], [ 489874.180088785185944, 8433658.105006840080023 ], [ 489876.747261099691968, 8433652.8470508903265 ], [ 489876.751584175624885, 8433642.329303937032819 ], [ 489879.318754380103201, 8433637.071347683668137 ], [ 489884.448879449279048, 8433637.073513234034181 ], [ 489887.015102607780136, 8433634.445214197039604 ], [ 489887.017208119912539, 8433629.186230048537254 ], [ 489889.583322297607083, 8433626.557930696755648 ], [ 489894.713553268869873, 8433626.559762435033917 ], [ 489897.283873027947266, 8433613.413825722411275 ], [ 489897.294497848837636, 8433587.119346870109439 ], [ 489899.864812529762276, 8433573.97307775169611 ], [ 489904.995032673468813, 8433573.975239254534245 ], [ 489907.561139444354922, 8433571.346827419474721 ], [ 489907.563240767049138, 8433566.087843047454953 ], [ 489904.999236342730001, 8433563.45738110691309 ], [ 489899.869018246885389, 8433563.455440782010555 ], [ 489897.307118360535242, 8433555.565993621945381 ], [ 489897.313428731984459, 8433539.789261423051357 ], [ 489899.881743657053448, 8433531.902087034657598 ], [ 489905.01184733962873, 8433531.904248546808958 ], [ 489907.577949909958988, 8433529.275726057589054 ], [ 489907.58005124371266, 8433524.016852121800184 ], [ 489905.016051163780503, 8433521.386279469355941 ], [ 489899.885949484829325, 8433521.384449739009142 ], [ 489897.322786385018844, 8433516.124439217150211 ], [ 489897.327101321308874, 8433505.606580635532737 ], [ 489894.764048250159249, 8433500.346680421382189 ], [ 489889.633950824500062, 8433500.3448485750705 ], [ 489887.071952803991735, 8433492.455289304256439 ], [ 489887.078269745281432, 8433476.678777508437634 ], [ 489881.951337324047927, 8433468.788411602377892 ], [ 489871.691047571774106, 8433468.784188561141491 ], [ 489866.561903684283607, 8433466.152693642303348 ], [ 489866.564013602212071, 8433460.893930001184344 ], [ 489864.000024222419597, 8433458.263352993875742 ], [ 489858.869935393566266, 8433458.261293655261397 ], [ 489856.305946988868527, 8433455.630937051028013 ], [ 489856.307951235794462, 8433450.371952122077346 ], [ 489853.743856031796895, 8433447.74148459173739 ], [ 489848.613769333867822, 8433447.739423155784607 ], [ 489846.057075190416072, 8433426.70278393663466 ], [ 489846.074205508746672, 8433384.631788071244955 ], [ 489843.517520243651234, 8433363.595147542655468 ], [ 489838.38734266377287, 8433363.593194473534822 ], [ 489835.823258151300251, 8433360.962835485115647 ], [ 489835.825374706590082, 8433355.703850192949176 ], [ 489838.391574617067818, 8433353.075445091351867 ], [ 489843.521750015905127, 8433353.077508769929409 ], [ 489846.089847425464541, 8433345.190228074789047 ], [ 489846.096406411903445, 8433329.413714466616511 ], [ 489843.534547587216366, 8433321.524149611592293 ], [ 489838.404162779042963, 8433321.522085808217525 ], [ 489835.840190432674717, 8433318.891837351024151 ], [ 489835.842414951825049, 8433313.632851941511035 ], [ 489840.973532228323165, 8433311.005368109792471 ], [ 489851.23375796014443, 8433311.009604044258595 ], [ 489856.364873038721271, 8433308.382227689027786 ], [ 489856.367093255452346, 8433303.123352859169245 ], [ 489858.933177802071441, 8433300.49494557082653 ], [ 489864.063450445712078, 8433300.496894590556622 ], [ 489866.630481103085913, 8433295.239049023017287 ], [ 489866.634701486036647, 8433284.721299171447754 ], [ 489869.201945850392804, 8433279.463453385978937 ], [ 489874.331890387344174, 8433279.465621409937739 ], [ 489876.894916473072954, 8433284.725524745881557 ], [ 489876.890700407675467, 8433295.243163971230388 ], [ 489884.583677409682423, 8433300.505343481898308 ], [ 489899.974063544184901, 8433300.511282209306955 ], [ 489907.673459821846336, 8433289.996608940884471 ], [ 489907.681866457278375, 8433268.961109271273017 ], [ 489920.511298153083771, 8433258.448481600731611 ], [ 489946.161862612061668, 8433258.458706684410572 ], [ 489958.990443163143937, 8433250.575497092679143 ], [ 489958.996500460314564, 8433234.798761408776045 ], [ 489961.564657869981602, 8433226.911468621343374 ], [ 489966.694807437364943, 8433226.913618035614491 ], [ 489969.262025146337692, 8433221.655651416629553 ], [ 489969.26609503646614, 8433211.138011790812016 ], [ 489974.398329340911005, 8433205.881063349545002 ], [ 489984.658512020192575, 8433205.885245336219668 ], [ 489989.787722909532022, 8433208.51671708188951 ], [ 489989.785638298431877, 8433213.775481577962637 ], [ 489997.479547357244883, 8433216.407968262210488 ], [ 490012.869881717138924, 8433216.414059698581696 ], [ 490020.562970643339213, 8433221.675976915284991 ], [ 490020.558814150979742, 8433232.193837486207485 ], [ 490023.121757819317281, 8433237.453725963830948 ], [ 490028.25190949277021, 8433237.455752262845635 ], [ 490030.810703179507982, 8433253.233389703556895 ], [ 490030.79824693815317, 8433284.78674915060401 ], [ 490025.661854439706076, 8433300.561347588896751 ], [ 490015.401849216781557, 8433300.557182587683201 ], [ 490010.269496448046993, 8433305.814249601215124 ], [ 490010.265443942102138, 8433316.331777786836028 ], [ 490015.393424574634992, 8433321.592681180685759 ], [ 490025.653546253277455, 8433321.596846174448729 ], [ 490030.781639057095163, 8433326.857746446505189 ], [ 490030.777487111452501, 8433337.375606160610914 ], [ 490033.340551726869307, 8433342.635271951556206 ], [ 490038.470616757695097, 8433342.637517189607024 ], [ 490041.034612500108778, 8433345.26774488016963 ], [ 490041.032538618892431, 8433350.52684055827558 ], [ 490046.161569014948327, 8433353.158189667388797 ], [ 490056.422027168970089, 8433353.162342207506299 ], [ 490061.553129155479837, 8433350.534924333915114 ], [ 490061.555090810230467, 8433345.275939233601093 ], [ 490064.121158070745878, 8433342.647621881216764 ], [ 490069.251438971667085, 8433342.649639762938023 ], [ 490071.81853898963891, 8433337.391552597284317 ], [ 490071.822565846028738, 8433326.873914137482643 ], [ 490082.084862802759744, 8433321.618960512802005 ], [ 490102.605537509312853, 8433321.627121714875102 ], [ 490112.861649253405631, 8433332.148779088631272 ], [ 490112.853305915254168, 8433353.184387313202024 ], [ 490115.414222918858286, 8433363.703140089288354 ], [ 490120.544292208913248, 8433363.705147439613938 ], [ 490123.108406427083537, 8433366.335587922483683 ], [ 490123.106349752517417, 8433371.594462219625711 ], [ 490125.67024917434901, 8433374.225012937560678 ], [ 490130.800536412512884, 8433374.227018274366856 ], [ 490133.364544895943254, 8433376.857347045093775 ], [ 490133.362490328203421, 8433382.11633188650012 ], [ 490135.926499883411452, 8433384.746660374104977 ], [ 490141.056573426525574, 8433384.748663529753685 ], [ 490143.620799780357629, 8433387.379212506115437 ], [ 490143.618747449014336, 8433392.637976100668311 ], [ 490148.747796936193481, 8433395.269414769485593 ], [ 490159.007948255108204, 8433395.273414805531502 ], [ 490164.137107772228774, 8433397.904850371181965 ], [ 490164.135059641092084, 8433403.163835097104311 ], [ 490166.699074531439692, 8433405.794160386547446 ], [ 490171.829152312711813, 8433405.796157265082002 ], [ 490174.395322038559243, 8433403.167828904464841 ], [ 490174.397367990168277, 8433397.908954791724682 ], [ 490176.963536742841825, 8433395.280404962599277 ], [ 490182.093612368858885, 8433395.282399769872427 ], [ 490184.655584455002099, 8433403.171707946807146 ], [ 490184.649452963960357, 8433418.948551317676902 ], [ 490187.211536257120315, 8433426.83774852193892 ], [ 490192.341726154380012, 8433426.839851845055819 ], [ 490194.904725522792432, 8433432.099721770733595 ], [ 490194.900642345368396, 8433442.617248468101025 ], [ 490197.463751691684593, 8433447.877339297905564 ], [ 490202.593838025641162, 8433447.879219274967909 ], [ 490205.157753516046796, 8433450.509651077911258 ], [ 490205.155821908148937, 8433455.768635582178831 ], [ 490207.719846464751754, 8433458.398845948278904 ], [ 490212.850042747450061, 8433458.400945067405701 ], [ 490215.413960374891758, 8433461.031375795602798 ], [ 490215.412138875399251, 8433466.29024969227612 ], [ 490220.541102842485998, 8433468.921673456206918 ], [ 490230.801391770888586, 8433468.925754779949784 ], [ 490235.930465816520154, 8433471.557064844295382 ], [ 490235.928540644817986, 8433476.816049234941602 ], [ 490238.492462585971225, 8433479.446366958320141 ], [ 490243.622663147223648, 8433479.448349203914404 ], [ 490246.183647689584177, 8433489.967087307944894 ], [ 490246.175740038219374, 8433511.002581920474768 ], [ 490248.736728846619371, 8433521.521540688350797 ], [ 490253.866937941405922, 8433521.523520801216364 ], [ 490256.4307583507034, 8433524.153947129845619 ], [ 490256.428945520019624, 8433529.412710130214691 ], [ 490258.992874874209519, 8433532.043246813118458 ], [ 490264.122978178900667, 8433532.045224789530039 ], [ 490266.687124510004651, 8433534.675539569929242 ], [ 490266.685097917390522, 8433539.934523632749915 ], [ 490269.249245270737447, 8433542.564948728308082 ], [ 490274.379350747913122, 8433542.566814012825489 ], [ 490276.943391214881558, 8433545.197348868474364 ], [ 490276.941258904000279, 8433550.456222239881754 ], [ 490279.505408394383267, 8433553.086646258831024 ], [ 490284.63562386384001, 8433553.088620085269213 ], [ 490287.201688852976076, 8433550.459948705509305 ], [ 490287.203711074544117, 8433545.201185898855329 ], [ 490289.769774876942392, 8433542.572846036404371 ], [ 490294.899880324781407, 8433542.574707152321935 ], [ 490297.466051051800605, 8433539.946145359426737 ], [ 490297.468071150477044, 8433534.687382524833083 ], [ 490305.164451894059312, 8433532.061011333018541 ], [ 490320.55476163997082, 8433532.066914001479745 ], [ 490328.251031315361615, 8433529.440314557403326 ], [ 490328.253152928955387, 8433524.181551765650511 ], [ 490330.819102523499168, 8433521.552875893190503 ], [ 490335.949311482545454, 8433521.554949931800365 ], [ 490338.513248347851913, 8433524.185257319360971 ], [ 490338.511452473409008, 8433529.444352017715573 ], [ 490343.640549889707472, 8433532.075750542804599 ], [ 490353.900756387971342, 8433532.079449875280261 ], [ 490359.028960128780454, 8433537.340392580255866 ], [ 490359.025053405552171, 8433547.858139289543033 ], [ 490361.588099788117688, 8433553.118102131411433 ], [ 490366.718207294761669, 8433553.119948647916317 ], [ 490369.28125581581844, 8433558.379910681396723 ], [ 490369.27735345880501, 8433568.897546598687768 ], [ 490371.840404176560696, 8433574.157397702336311 ], [ 490376.970515901746694, 8433574.159352706745267 ], [ 490379.534570257819723, 8433576.78976640664041 ], [ 490379.532567217538599, 8433582.048750162124634 ], [ 490382.096730603429023, 8433584.679053025320172 ], [ 490387.226952356868424, 8433584.681005975231528 ], [ 490389.789115917286836, 8433592.570291753858328 ], [ 490389.78311332652811, 8433608.347132155671716 ], [ 490392.344848480250221, 8433616.236417345702648 ], [ 490397.47529254865367, 8433616.238147065043449 ], [ 490400.036247409996577, 8433626.756867976859212 ], [ 490400.028252712509129, 8433647.792580813169479 ], [ 490412.84979324269807, 8433658.315086979418993 ], [ 490438.500652795133647, 8433658.324920106679201 ], [ 490451.339220225345343, 8433624.146877052262425 ], [ 490451.364956683188211, 8433555.781638111919165 ], [ 490459.073246630374342, 8433521.601648911833763 ], [ 490474.463549439620692, 8433521.607457837089896 ], [ 490482.159799506946001, 8433518.981143375858665 ], [ 490482.161781304457691, 8433513.7220488935709 ], [ 490484.727929468848743, 8433511.093578740954399 ], [ 490489.858028199523687, 8433511.09562149643898 ], [ 490492.426047009648755, 8433503.208166604861617 ], [ 490492.431985821342096, 8433487.431546511128545 ], [ 490489.869909068976995, 8433479.542270688340068 ], [ 490484.739816663903184, 8433479.540449095889926 ], [ 490482.176752277184278, 8433474.280498567968607 ], [ 490482.180607914051507, 8433463.762751564383507 ], [ 490479.61754564702278, 8433458.502911292016506 ], [ 490474.487349627772346, 8433458.500976955518126 ], [ 490471.923297535744496, 8433455.870572648942471 ], [ 490471.925281422794797, 8433450.611809691414237 ], [ 490466.796079499414191, 8433447.980436995625496 ], [ 490456.535907566256355, 8433447.976451527327299 ], [ 490451.408803886792157, 8433440.08620211109519 ], [ 490451.414660703274421, 8433424.309470482170582 ], [ 490448.852711182611529, 8433416.420190054923296 ], [ 490443.722523674194235, 8433416.418249418959022 ], [ 490441.158263207937125, 8433413.787952374666929 ], [ 490441.160253640206065, 8433408.528968017548323 ], [ 490428.335947242798284, 8433405.894673710688949 ], [ 490402.685451819328591, 8433405.885049965232611 ], [ 490389.861150661890861, 8433403.250736085698009 ], [ 490389.863151789759286, 8433397.991751626133919 ], [ 490387.29889877489768, 8433395.361449033021927 ], [ 490382.168823428102769, 8433395.359385311603546 ], [ 490379.604679430718534, 8433392.728971371427178 ], [ 490379.606682624085806, 8433387.470208056271076 ], [ 490377.042647655820474, 8433384.839683271944523 ], [ 490371.912466432841029, 8433384.837838612496853 ], [ 490369.348648307553958, 8433382.207423713058233 ], [ 490369.350653734814841, 8433376.948439152911305 ], [ 490366.786405001359526, 8433374.318134408444166 ], [ 490361.65644180693198, 8433374.316066538915038 ], [ 490359.092194179771468, 8433371.685650398954749 ], [ 490359.094201714673545, 8433366.426776381209493 ], [ 490356.530170973215718, 8433363.796360049396753 ], [ 490351.400209868210368, 8433363.794400677084923 ], [ 490348.835964372847229, 8433361.163983469828963 ], [ 490348.837974015215877, 8433355.905219987034798 ], [ 490341.143770609924104, 8433353.272841030731797 ], [ 490325.753354071406648, 8433353.266950167715549 ], [ 490318.05926178622758, 8433350.634453596547246 ], [ 490318.061277936038096, 8433345.375468846410513 ], [ 490310.367080851574428, 8433342.743191048502922 ], [ 490294.976562750758603, 8433342.737170752137899 ], [ 490287.283595916233025, 8433337.475448869168758 ], [ 490287.287641032773536, 8433326.957589771598577 ], [ 490284.7246332205832, 8433321.697950048372149 ], [ 490279.594464837922715, 8433321.695754759013653 ], [ 490277.031351341458503, 8433316.43589298799634 ], [ 490277.035508608794771, 8433305.918254932388663 ], [ 490274.472397308680229, 8433300.658282231539488 ], [ 490269.342448921175674, 8433300.656306114047766 ], [ 490266.77832629106706, 8433298.025880394503474 ], [ 490266.780353105277754, 8433292.767116572707891 ], [ 490261.651204500172753, 8433290.135590983554721 ], [ 490251.39098819863284, 8433290.131742941215634 ], [ 490246.262857284978963, 8433284.87077696248889 ], [ 490246.267135366564617, 8433274.353138631209731 ], [ 490243.704141607391648, 8433269.093162659555674 ], [ 490238.573767958092503, 8433269.091180086135864 ], [ 490236.014950879616663, 8433253.313454141840339 ], [ 490236.027150835376233, 8433221.7604272197932 ], [ 490233.46812457049964, 8433205.982589730992913 ], [ 490228.337979546748102, 8433205.980605082586408 ], [ 490225.773978750687093, 8433203.35017497651279 ], [ 490225.776122139301151, 8433198.091410771012306 ], [ 490215.516854150046129, 8433195.457889251410961 ], [ 490194.996606180502567, 8433195.450040485709906 ], [ 490184.737342393491417, 8433192.816506436094642 ], [ 490184.739386477682274, 8433187.557631503790617 ], [ 490182.1753920338233, 8433184.927307490259409 ], [ 490177.045251225179527, 8433184.925312396138906 ], [ 490174.482281006174162, 8433179.665439495816827 ], [ 490174.48637353151571, 8433169.147578880190849 ], [ 490177.053542010369711, 8433163.889701815322042 ], [ 490182.183462723507546, 8433163.891696849837899 ], [ 490184.749607042525895, 8433161.263145918026567 ], [ 490184.751651124097407, 8433156.004381457343698 ], [ 490187.317686390306335, 8433153.376051409170032 ], [ 490192.447928686742671, 8433153.378044499084353 ], [ 490195.017026009387337, 8433142.861069241538644 ], [ 490195.02519409469096, 8433121.82556863501668 ], [ 490192.464053351141047, 8433111.306932587176561 ], [ 490187.334143333660904, 8433111.304939575493336 ], [ 490184.77004854765255, 8433108.674504984170198 ], [ 490184.772092739469372, 8433103.415629718452692 ], [ 490182.208106982521713, 8433100.78508429788053 ], [ 490177.077983268594835, 8433100.783089105039835 ], [ 490174.51502166147111, 8433095.52332641929388 ], [ 490174.519114359165542, 8433085.005575740709901 ], [ 490171.956047085172031, 8433079.745591485872865 ], [ 490166.826251357211731, 8433079.743594311177731 ], [ 490164.261946154641919, 8433077.113046867772937 ], [ 490164.264102482935414, 8433071.854392681270838 ], [ 490161.700229984940961, 8433069.22384512424469 ], [ 490156.570112656394485, 8433069.221845725551248 ], [ 490154.007050735875964, 8433063.961859554052353 ], [ 490154.011151975777466, 8433053.444329766556621 ], [ 490156.578313171805348, 8433048.18634376861155 ], [ 490161.708426226454321, 8433048.188343193382025 ], [ 490164.274453022168018, 8433045.560015326365829 ], [ 490164.276393660227768, 8433040.301139743998647 ], [ 490166.842419518914539, 8433037.672479815781116 ], [ 490171.972530424594879, 8433037.67447716742754 ], [ 490174.540601550135761, 8433029.787162085995078 ], [ 490174.546848724421579, 8433014.01064588688314 ], [ 490177.114808780315798, 8433006.123330375179648 ], [ 490182.244913261616603, 8433006.125325679779053 ], [ 490184.81502236390952, 8432992.979133697226644 ], [ 490184.825352043495513, 8432966.684754904359579 ], [ 490182.265254315745551, 8432953.536346746608615 ], [ 490177.13526842626743, 8432953.534351423382759 ], [ 490174.571298658789601, 8432950.904136618599296 ], [ 490174.573453140386846, 8432945.64515015669167 ], [ 490166.879284950788133, 8432943.012716375291348 ], [ 490151.489333585195709, 8432943.006828457117081 ], [ 490143.79322356620105, 8432945.633153019472957 ], [ 490143.790846857358702, 8432950.892139434814453 ], [ 490141.225151235412341, 8432953.520354891195893 ], [ 490136.094949483405799, 8432953.518351145088673 ], [ 490133.527901359950192, 8432958.776446033269167 ], [ 490133.523791285871994, 8432969.294087219983339 ], [ 490130.95674117380986, 8432974.551850011572242 ], [ 490125.826750906999223, 8432974.549954885616899 ], [ 490123.260619255481288, 8432977.17850011959672 ], [ 490123.258454208436888, 8432982.437265321612358 ], [ 490120.692537350056227, 8432985.065699767321348 ], [ 490115.56254498421913, 8432985.063691973686218 ], [ 490112.996411189553328, 8432987.692236157134175 ], [ 490112.994351934001315, 8432992.95100137218833 ], [ 490102.733333207201213, 8432995.576530130580068 ], [ 490082.21303138055373, 8432995.568367434665561 ], [ 490071.951792529143859, 8432998.193773023784161 ], [ 490071.949832603975665, 8433003.452648889273405 ], [ 490069.383692433184478, 8433006.081078043207526 ], [ 490064.253587819286622, 8433006.07905980758369 ], [ 490061.684449552791193, 8433016.595801902934909 ], [ 490061.676169764134102, 8433037.631415411829948 ], [ 490056.542132576811127, 8433048.147147074341774 ], [ 490046.282014129217714, 8433048.143104491755366 ], [ 490041.150647987728007, 8433050.770629962906241 ], [ 490041.148681763617788, 8433056.029395055025816 ], [ 490038.582640925480518, 8433058.657931666821241 ], [ 490033.452525590255391, 8433058.655907239764929 ], [ 490030.885445661144331, 8433063.913549091666937 ], [ 490030.881293032434769, 8433074.431410886347294 ], [ 490033.444222600606736, 8433079.69129902869463 ], [ 490038.574342209671158, 8433079.69332342967391 ], [ 490041.138310985523276, 8433082.323772987350821 ], [ 490041.136236850346904, 8433087.582648513838649 ], [ 490028.309949327842332, 8433090.207135258242488 ], [ 490002.65966420865152, 8433090.196992594748735 ], [ 489989.833371324406471, 8433092.821238631382585 ], [ 489989.831502335669938, 8433098.08011425845325 ], [ 489977.005096118373331, 8433100.704464355483651 ], [ 489951.354907916800585, 8433100.694269683212042 ], [ 489938.528496200160589, 8433103.318710854277015 ], [ 489938.526400767732412, 8433108.577475821599364 ], [ 489935.960343921149615, 8433111.205891402438283 ], [ 489930.830325686489232, 8433111.203846234828234 ], [ 489928.262062214955222, 8433119.091247130185366 ], [ 489928.255769501847681, 8433134.867763016372919 ], [ 489925.687610822904389, 8433142.755052976310253 ], [ 489920.557478213915601, 8433142.753116315230727 ], [ 489917.991415991447866, 8433145.381640631705523 ], [ 489917.989316340652294, 8433150.640405464917421 ], [ 489897.468051298928913, 8433153.261752409860492 ], [ 489856.427296977955848, 8433153.245299546048045 ], [ 489835.905915318755433, 8433155.866264678537846 ], [ 489835.903690591338091, 8433161.125250712037086 ], [ 489833.33761773473816, 8433163.753545273095369 ], [ 489828.207588648074307, 8433163.751589920371771 ], [ 489825.640347316802945, 8433169.009431974962354 ], [ 489825.63621739851078, 8433179.527293484658003 ], [ 489820.503849376167636, 8433184.784101318567991 ], [ 489810.243782757723238, 8433184.779852617532015 ], [ 489805.112579932028893, 8433187.407219672575593 ], [ 489805.110456788097508, 8433192.666095066815615 ], [ 489794.849324245005846, 8433195.291388429701328 ], [ 489774.328858493012376, 8433195.283087139949203 ], [ 489764.067613694409374, 8433197.908367972820997 ], [ 489764.065481972706039, 8433203.167353980243206 ], [ 489761.49939730524784, 8433205.795751821249723 ], [ 489756.369251764845103, 8433205.79356069304049 ], [ 489753.799965328013059, 8433216.310270816087723 ], [ 489753.791538123157807, 8433237.345772117376328 ], [ 489748.657116421905812, 8433247.86155117675662 ], [ 489738.396808126941323, 8433247.857383962720633 ], [ 489733.265692866232712, 8433250.48473646864295 ], [ 489733.263446895289235, 8433255.743722254410386 ], [ 489730.697353741037659, 8433258.372006321325898 ], [ 489725.56730534392409, 8433258.369919644668698 ], [ 489722.996930801891722, 8433271.516063923016191 ], [ 489722.9862302011461, 8433297.810550151392817 ], [ 489720.415850449469872, 8433310.95669381134212 ], [ 489715.28568344732048, 8433310.954605070874095 ], [ 489712.718511647311971, 8433316.21254594810307 ], [ 489712.714335250144359, 8433326.730074787512422 ], [ 489710.147053418157157, 8433331.988015310838819 ], [ 489705.016882137104403, 8433331.985924510285258 ], [ 489702.450670373684261, 8433334.614316176623106 ], [ 489702.44874187768437, 8433339.873191211372614 ], [ 489699.882529101683758, 8433342.501472011208534 ], [ 489694.752247709897347, 8433342.49948969297111 ], [ 489692.186249635415152, 8433345.127880394458771 ], [ 489692.183995290892199, 8433350.386755269020796 ], [ 489694.747847952181473, 8433353.017350066453218 ], [ 489699.878347253485117, 8433353.019443057477474 ], [ 489702.442201025201939, 8433355.649926465004683 ], [ 489702.439948874991387, 8433360.908690689131618 ], [ 489694.743556221248582, 8433363.534989211708307 ], [ 489679.353346787684131, 8433363.52870455570519 ], [ 489671.657058798125945, 8433366.15499610081315 ], [ 489671.654908117139712, 8433371.413870954886079 ], [ 489669.088796797033865, 8433374.042259251698852 ], [ 489663.958724822325166, 8433374.040160210803151 ], [ 489661.384969741804525, 8433395.074609480798244 ], [ 489661.367747620970476, 8433437.145828135311604 ], [ 489658.794092286902014, 8433458.180165646597743 ], [ 489653.663895298086572, 8433458.178064581006765 ], [ 489651.096803793974686, 8433463.435998842120171 ], [ 489651.092386246542446, 8433473.953747773543 ], [ 489648.525184799451381, 8433479.21146048232913 ], [ 489643.395091442216653, 8433479.209357403218746 ], [ 489640.828750419430435, 8433481.837853204458952 ], [ 489640.826701395271812, 8433487.096727691590786 ], [ 489635.695527471718378, 8433489.723949676379561 ], [ 489625.435228478745557, 8433489.719847841188312 ], [ 489620.304052401683293, 8433492.347066707909107 ], [ 489620.301783254486509, 8433497.606051685288548 ], [ 489617.735653776151594, 8433500.234545219689608 ], [ 489612.605448198039085, 8433500.232435870915651 ], [ 489610.037046515557449, 8433508.119581781327724 ], [ 489610.030556613288354, 8433523.896204842254519 ], [ 489612.592471688985825, 8433531.785460768267512 ], [ 489617.722575767023955, 8433531.787570035085082 ], [ 489620.286547238472849, 8433534.418061412870884 ], [ 489620.284493967483286, 8433539.677046312019229 ], [ 489617.718252335907891, 8433542.30553974583745 ], [ 489612.588146167050581, 8433542.303319895640016 ], [ 489610.022011374880094, 8433544.931812593713403 ], [ 489610.019848162366543, 8433550.190576229244471 ], [ 489607.453820312803145, 8433552.818847510963678 ], [ 489602.323496078839526, 8433552.816846692934632 ], [ 489599.757251246075612, 8433555.445338297635317 ], [ 489599.755193822144065, 8433560.704101948067546 ], [ 489574.103234780835919, 8433563.322964111343026 ], [ 489522.801589453418273, 8433563.301846750080585 ], [ 489497.149727210926358, 8433565.920520273968577 ], [ 489497.147540436708368, 8433571.179505160078406 ], [ 489494.581282825092785, 8433573.807764934375882 ], [ 489489.450954177766107, 8433573.805741218850017 ], [ 489486.882722466194537, 8433581.692874558269978 ], [ 489486.876048048492521, 8433597.469497164711356 ], [ 489481.742753530386835, 8433605.355672722682357 ], [ 489471.482299297174904, 8433605.351398015394807 ], [ 489466.351083443674725, 8433607.978917429223657 ], [ 489466.348890456720255, 8433613.237570395693183 ], [ 489463.782841107284185, 8433615.866048287600279 ], [ 489458.652503876131959, 8433615.864018373191357 ], [ 489456.086453594034538, 8433618.492163699120283 ], [ 489456.084150436101481, 8433623.751148384064436 ], [ 489453.517883124120999, 8433626.379625136032701 ], [ 489448.387759708217345, 8433626.377261454239488 ], [ 489445.81841117242584, 8433636.894048666581511 ], [ 489445.809621968597639, 8433657.92954482883215 ], [ 489479.151301498699468, 8433668.461203493177891 ], [ 489545.843772598949727, 8433668.48889297619462 ], [ 489579.191146410710644, 8433665.873345408588648 ], [ 489579.193315966054797, 8433660.614361006766558 ], [ 489581.759465601178817, 8433657.985982161015272 ], [ 489586.889595305954572, 8433657.988208126276731 ], [ 489589.457043389149476, 8433652.730391673743725 ], [ 489589.461054493382107, 8433642.212533228099346 ], [ 489592.02860836556647, 8433636.954716518521309 ], [ 489597.158841747324914, 8433636.956829868257046 ], [ 489599.724879204295576, 8433634.328449133783579 ], [ 489599.727152440929785, 8433629.069464677944779 ], [ 489607.423527884937357, 8433626.443416194990277 ], [ 489622.81389780639438, 8433626.449743643403053 ], [ 489630.510270188446157, 8433623.823245754465461 ], [ 489630.51242907444248, 8433618.564371846616268 ], [ 489633.078569001576398, 8433615.936208963394165 ], [ 489638.208798060310073, 8433615.938314003869891 ], [ 489640.777093772601802, 8433608.051055215299129 ], [ 489640.783456287288573, 8433592.274212034419179 ], [ 489645.917129939189181, 8433584.388004595413804 ], [ 489656.177251463930588, 8433584.392208367586136 ], [ 489661.308550349960569, 8433581.764871746301651 ], [ 489661.31070283887675, 8433576.506108306348324 ], [ 489663.877051261544693, 8433573.877610562369227 ], [ 489669.007055910711642, 8433573.87970931455493 ], [ 489671.573187346453778, 8433571.251431891694665 ], [ 489671.575553630420472, 8433565.992447314783931 ], [ 489679.271686546038836, 8433563.36615570820868 ], [ 489694.662341437477153, 8433563.37255035713315 ], [ 489702.35654296935536, 8433566.005015268921852 ], [ 489702.354183101095259, 8433571.263999806717038 ], [ 489712.613551996997558, 8433573.897507224231958 ], [ 489733.134217790502589, 8433573.90585664473474 ], [ 489743.390279760351405, 8433584.427772969007492 ], [ 489743.381845983618405, 8433605.46326850168407 ], [ 489745.942635683750268, 8433615.982057549059391 ], [ 489751.072648730827495, 8433615.984250172972679 ], [ 489753.636750473349821, 8433618.614838343113661 ], [ 489753.634725177078508, 8433623.873601550236344 ], [ 489758.763673728972208, 8433626.505229465663433 ], [ 489769.02424380381126, 8433626.509166274219751 ], [ 489774.153194474929478, 8433629.140791047364473 ], [ 489774.151065554120578, 8433634.399554137140512 ], [ 489779.280234186211601, 8433637.031177934259176 ], [ 489789.540700477547944, 8433637.035327527672052 ], [ 489794.668701023620088, 8433642.296274347230792 ], [ 489794.664451634453144, 8433652.814132142812014 ], [ 489797.227391718130093, 8433658.074041906744242 ], [ 489802.357629120873753, 8433658.076113553717732 ], [ 489804.921740562596824, 8433660.706475179642439 ], [ 489804.919510129606351, 8433665.965348659083247 ], [ 489820.308951615646947, 8433668.600992409512401 ], [ 489851.090064841031563, 8433668.613378314301372 ], [ 489866.481838038889691, 8433665.990231147035956 ], [ 489866.483947781729512, 8433660.73124710470438 ] ] ] ] } },
{ "type": "Feature", "properties": { "fid": 24676, "FUENTE": "Servicio Nacional Forestal y de Fauna Silvestre", "DOCREG": null, "FECREG": null, "OBSERV": null, "ZONUTM": 19, "ORIGEN": 0, "REFER": null, "ANNO": "2024", "MES": "11", "DIA": null, "CODPIF": null, "CODRIF": null, "CODOIF": "OIF_PUN_20240911", "CODSIN": null, "SUPIND": 1.12, "NOMDEP": "PUNO", "NOMPRO": "SANDIA", "NOMDIS": "SAN JUAN DEL ORO", "CATDEP": "21", "CATPRO": "2112", "CATDIS": "211207", "VERAFECT": 0.0, "FFECHA": null, "created_us": "MGALAN", "created_da": "2025-06-11", "last_edite": "JMONTALBAN", "last_edi_1": "2025-10-09", "Shape_STAr": 9.4011506235200001e-07, "Shape_STLe": 0.0050225870007000002 }, "geometry": { "type": "MultiPolygon", "coordinates": [ [ [ [ 483150.117111999366898, 8432090.543510789051652 ], [ 483150.117522159940563, 8432089.767672268673778 ], [ 483159.957198908668943, 8432089.774130254983902 ], [ 483159.963520128687378, 8432080.463958324864507 ], [ 483180.399930105195381, 8432080.477478098124266 ], [ 483180.400447174382862, 8432079.701750246807933 ], [ 483181.157403172343038, 8432079.702254792675376 ], [ 483181.163500944909174, 8432070.391861533746123 ], [ 483191.003169789735693, 8432070.398639287799597 ], [ 483191.002653043251485, 8432071.174367140978575 ], [ 483241.715342024632264, 8432071.208098128437996 ], [ 483241.71574945456814, 8432070.432149020954967 ], [ 483250.798570421524346, 8432070.438179600983858 ], [ 483250.819170185481198, 8432039.404199603945017 ], [ 483241.73636046302272, 8432039.39805831387639 ], [ 483241.742651711101644, 8432030.087886331602931 ], [ 483240.985805124801118, 8432030.087383659556508 ], [ 483240.98621251800796, 8432029.311545131728053 ], [ 483230.389605355332606, 8432029.30439423955977 ], [ 483230.395169396826532, 8432020.770060462877154 ], [ 483229.638323086488526, 8432020.769557448104024 ], [ 483229.645542349608149, 8432009.907597681507468 ], [ 483220.562743165181018, 8432009.901448657736182 ], [ 483220.563259097456466, 8432009.125610182061791 ], [ 483210.723506135342177, 8432009.119175426661968 ], [ 483210.729184882482514, 8432000.584730936214328 ], [ 483209.972339171450585, 8432000.58422732539475 ], [ 483209.97274760203436, 8431999.808278173208237 ], [ 483180.45360744476784, 8431999.788728768005967 ], [ 483180.467162046930753, 8431979.6165960598737 ], [ 483169.870467582717538, 8431979.609419461339712 ], [ 483169.871092988178134, 8431978.833581019192934 ], [ 483160.031351712008473, 8431978.827015774324536 ], [ 483160.037457543541677, 8431969.516842929646373 ], [ 483150.197827764379326, 8431969.510273883119226 ], [ 483150.198345874145161, 8431968.734435362741351 ], [ 483120.679241482052021, 8431968.714594453573227 ], [ 483120.678722390613984, 8431969.490543577820063 ], [ 483100.242401871073525, 8431969.476863894611597 ], [ 483100.236058088077698, 8431978.787147415801883 ], [ 483099.479320974089205, 8431978.786529952660203 ], [ 483099.464662224636413, 8432000.510450948029757 ], [ 483100.221615946560632, 8432000.51084735058248 ], [ 483100.221096236957237, 8432001.286796463653445 ], [ 483108.547047084954102, 8432001.292371584102511 ], [ 483108.541441608802415, 8432009.826927082613111 ], [ 483109.298179724893998, 8432009.827433660626411 ], [ 483109.290908728493378, 8432020.689283343032002 ], [ 483120.644467127916869, 8432020.696880912408233 ], [ 483120.643948053300846, 8432021.472830012440681 ], [ 483129.726751928392332, 8432021.478793757036328 ], [ 483129.68784780614078, 8432079.667785687372088 ], [ 483130.444803819060326, 8432079.668291755020618 ], [ 483130.437952960142866, 8432089.754412848502398 ], [ 483141.034586024354212, 8432089.761494852602482 ], [ 483141.03417557902867, 8432090.537333376705647 ], [ 483150.117111999366898, 8432090.543510789051652 ] ] ] ] } },
{ "type": "Feature", "properties": { "fid": 24677, "FUENTE": "Servicio Nacional Forestal y de Fauna Silvestre", "DOCREG": null, "FECREG": null, "OBSERV": null, "ZONUTM": 19, "ORIGEN": 0, "REFER": null, "ANNO": "2024", "MES": "11", "DIA": null, "CODPIF": null, "CODRIF": null, "CODOIF": "OIF_PUN_20240912", "CODSIN": null, "SUPIND": 1.45, "NOMDEP": "PUNO", "NOMPRO": "SANDIA", "NOMDIS": "SAN JUAN DEL ORO", "CATDEP": "21", "CATPRO": "2112", "CATDIS": "211207", "VERAFECT": 0.0, "FFECHA": null, "created_us": "MGALAN", "created_da": "2025-06-11", "last_edite": "JMONTALBAN", "last_edi_1": "2025-10-09", "Shape_STAr": 1.21326780469e-06, "Shape_STLe": 0.0069025790004500001 }, "geometry": { "type": "MultiPolygon", "coordinates": [ [ [ [ 481732.831338260672055, 8429618.166625820100307 ], [ 481732.833480723784305, 8429615.063153779134154 ], [ 481735.860794862033799, 8429615.06534873880446 ], [ 481735.865294774237555, 8429608.85851538553834 ], [ 481738.89271606359398, 8429608.860710067674518 ], [ 481738.89721516717691, 8429602.653987288475037 ], [ 481741.924527805938851, 8429602.656181536614895 ], [ 481741.926669252221473, 8429599.552598867565393 ], [ 481751.008821821131278, 8429599.559179598465562 ], [ 481751.01984659320442, 8429584.042151223868132 ], [ 481754.047156978806015, 8429584.044344041496515 ], [ 481754.058503675332759, 8429568.527315732091665 ], [ 481757.085920086072292, 8429568.529508283361793 ], [ 481757.09244657761883, 8429559.219202548265457 ], [ 481760.119861866987776, 8429559.221394747495651 ], [ 481760.122108955809381, 8429556.117922674864531 ], [ 481772.23144489742117, 8429556.126687614247203 ], [ 481772.233582524990197, 8429553.023326074704528 ], [ 481775.260889234021306, 8429553.025405783206224 ], [ 481775.263242280401755, 8429549.922044396400452 ], [ 481781.317746888555121, 8429549.926423853263259 ], [ 481781.322343768842984, 8429543.719479797407985 ], [ 481784.349649267387576, 8429543.721669027581811 ], [ 481784.351893234299496, 8429540.618418147787452 ], [ 481787.379306256538257, 8429540.62060709670186 ], [ 481787.394904596440028, 8429518.896523512899876 ], [ 481784.367494110483676, 8429518.894445130601525 ], [ 481784.376578676688951, 8429506.480556637048721 ], [ 481781.349277653731406, 8429506.478367358446121 ], [ 481781.351522125711199, 8429503.375005785375834 ], [ 481775.296812919143122, 8429503.370626052841544 ], [ 481775.321511003538035, 8429469.233095245435834 ], [ 481772.294214444526006, 8429469.230904828757048 ], [ 481772.296568140969612, 8429466.127322042360902 ], [ 481760.187275383388624, 8429466.118667239323258 ], [ 481760.191769826516975, 8429459.911722656339407 ], [ 481757.164474365708884, 8429459.909530406817794 ], [ 481757.166829779976979, 8429456.806168779730797 ], [ 481726.893770797876641, 8429456.784226169809699 ], [ 481726.891411573684309, 8429459.88769843429327 ], [ 481720.836820565571543, 8429459.883305570110679 ], [ 481720.827812542556785, 8429472.296863123774529 ], [ 481708.718732402950991, 8429472.288073170930147 ], [ 481708.716370962618385, 8429475.391545429825783 ], [ 481702.661668284854386, 8429475.387148160487413 ], [ 481702.65512129815761, 8429484.697454698383808 ], [ 481699.627714968111832, 8429484.695144895464182 ], [ 481699.625352345930878, 8429487.798727732151747 ], [ 481690.543455651495606, 8429487.792128175497055 ], [ 481690.536688456078991, 8429497.102434517815709 ], [ 481687.509388431732077, 8429497.100233947858214 ], [ 481687.507240363163874, 8429500.203485140576959 ], [ 481678.425231253029779, 8429500.19688118621707 ], [ 481678.420716702239588, 8429506.403936391696334 ], [ 481675.393415536556859, 8429506.401734380051494 ], [ 481675.359660433896352, 8429552.953043987974524 ], [ 481678.386967187107075, 8429552.95524594001472 ], [ 481678.38460221211426, 8429556.058607446029782 ], [ 481687.466631462273654, 8429556.065211186185479 ], [ 481687.464375502895564, 8429559.168572751805186 ], [ 481690.491682986437809, 8429559.170773239806294 ], [ 481690.48491609247867, 8429568.481079086661339 ], [ 481699.566841877647676, 8429568.487678334116936 ], [ 481699.557823942566756, 8429580.901345580816269 ], [ 481690.475893682043534, 8429580.894746381789446 ], [ 481690.471382502990309, 8429587.101579984650016 ], [ 481687.444071662961505, 8429587.099379532039165 ], [ 481687.437195874226745, 8429596.409685116261244 ], [ 481666.246012043498922, 8429596.394271844998002 ], [ 481666.252787770179566, 8429587.083966098725796 ], [ 481663.22547689761268, 8429587.081762734800577 ], [ 481663.227735801192466, 8429583.978401202708483 ], [ 481648.091183250187896, 8429583.967378910630941 ], [ 481648.093444103433285, 8429580.863906746730208 ], [ 481642.038823800859973, 8429580.859495276585221 ], [ 481642.0410853237845, 8429577.756133701652288 ], [ 481632.959155879507307, 8429577.749624349176884 ], [ 481632.956785424554255, 8429580.852875262498856 ], [ 481617.820342355116736, 8429580.841945433989167 ], [ 481617.815705461543985, 8429587.048668554052711 ], [ 481614.78839452797547, 8429587.046459369361401 ], [ 481614.77933476655744, 8429599.460348080843687 ], [ 481617.806647272664122, 8429599.46244665235281 ], [ 481617.804382796864957, 8429602.565808216109872 ], [ 481629.913633953721728, 8429602.574641233310103 ], [ 481629.909107918210793, 8429608.781474893912673 ], [ 481632.936421442893334, 8429608.783682230859995 ], [ 481632.934266658325214, 8429611.88715442083776 ], [ 481638.988786549190991, 8429611.891567915678024 ], [ 481638.986632432905026, 8429614.995150692760944 ], [ 481642.01394677371718, 8429614.997246334329247 ], [ 481642.01168530335417, 8429618.100607821717858 ], [ 481732.831338260672055, 8429618.166625820100307 ] ] ] ] } },
{ "type": "Feature", "properties": { "fid": 24678, "FUENTE": "Servicio Nacional Forestal y de Fauna Silvestre", "DOCREG": null, "FECREG": null, "OBSERV": null, "ZONUTM": 19, "ORIGEN": 0, "REFER": null, "ANNO": "2024", "MES": "11", "DIA": null, "CODPIF": null, "CODRIF": null, "CODOIF": "OIF_PUN_20240913", "CODSIN": null, "SUPIND": 1.02, "NOMDEP": "PUNO", "NOMPRO": "SANDIA", "NOMDIS": "SAN JUAN DEL ORO", "CATDEP": "21", "CATPRO": "2112", "CATDIS": "211207", "VERAFECT": 0.0, "FFECHA": null, "created_us": "MGALAN", "created_da": "2025-06-11", "last_edite": "JMONTALBAN", "last_edi_1": "2025-10-09", "Shape_STAr": 8.5424800404600001e-07, "Shape_STLe": 0.00768826000082 }, "geometry": { "type": "MultiPolygon", "coordinates": [ [ [ [ 482232.046107657020912, 8430034.382549030706286 ], [ 482232.048188019834924, 8430031.279078602790833 ], [ 482235.075659391179215, 8430031.281213095411658 ], [ 482235.0953501634649, 8430003.350532654672861 ], [ 482271.423671304248273, 8430003.376117691397667 ], [ 482271.425854835892096, 8430000.272536722943187 ], [ 482274.453322351851966, 8430000.274777121841908 ], [ 482274.461946744762827, 8429987.861006101593375 ], [ 482271.434588538017124, 8429987.858876360580325 ], [ 482271.43677193520125, 8429984.755516553297639 ], [ 482265.382056336617097, 8429984.751145368441939 ], [ 482265.401822097657714, 8429956.820353776216507 ], [ 482262.374359634821303, 8429956.818333424627781 ], [ 482262.37665216618916, 8429953.714863007888198 ], [ 482253.294589796336368, 8429953.708468198776245 ], [ 482253.296667654183693, 8429950.604997616261244 ], [ 482250.269313895318191, 8429950.602865282446146 ], [ 482250.271499875350855, 8429947.499615957960486 ], [ 482241.189439697365742, 8429947.493216760456562 ], [ 482241.187252598872874, 8429950.596466097980738 ], [ 482238.159898748330306, 8429950.594442905858159 ], [ 482238.157711203210056, 8429953.69780283421278 ], [ 482232.102895004209131, 8429953.693534096702933 ], [ 482232.100814535107929, 8429956.797004707157612 ], [ 482229.073352188046556, 8429956.794759161770344 ], [ 482229.066786079201847, 8429966.105060119181871 ], [ 482219.984827006061096, 8429966.098653430119157 ], [ 482219.982637167035136, 8429969.202123949304223 ], [ 482216.955173313443083, 8429969.1998769659549 ], [ 482216.948710675351322, 8429978.510177958756685 ], [ 482204.839281939319335, 8429978.501739723607898 ], [ 482204.837090252956841, 8429981.605210226029158 ], [ 482201.809624967165291, 8429981.602850843220949 ], [ 482201.798664890928194, 8429997.119982089847326 ], [ 482183.634400363953318, 8429997.107256405055523 ], [ 482183.645371625781991, 8429981.590125035494566 ], [ 482180.618121870211326, 8429981.588095048442483 ], [ 482180.620208722131792, 8429978.484513834118843 ], [ 482177.592851518304087, 8429978.482372805476189 ], [ 482177.599544486089144, 8429969.172071814537048 ], [ 482174.572080345067661, 8429969.170151527971029 ], [ 482174.574275855324231, 8429966.066570354625583 ], [ 482162.464852872886695, 8429966.058111688122153 ], [ 482162.469246810884215, 8429959.851059885695577 ], [ 482174.578666575602256, 8429959.859850382432342 ], [ 482174.580862098606303, 8429956.756269186735153 ], [ 482177.608324513421394, 8429956.758521279320121 ], [ 482177.619191964447964, 8429941.241278726607561 ], [ 482174.591947046865243, 8429941.239247960969806 ], [ 482174.59414251713315, 8429938.135777324438095 ], [ 482147.347863124567084, 8429938.11659849435091 ], [ 482147.361056013905909, 8429919.495995488017797 ], [ 482144.333705852739513, 8429919.493850383907557 ], [ 482144.335905003186781, 8429916.390490248799324 ], [ 482141.308555288065691, 8429916.388234181329608 ], [ 482141.306355686392635, 8429919.491704918444157 ], [ 482120.114904501126148, 8429919.476565869525075 ], [ 482120.094977200089488, 8429947.407359918579459 ], [ 482117.067623490642291, 8429947.405432775616646 ], [ 482117.065421105595306, 8429950.508682273328304 ], [ 482092.846481677668635, 8429950.491482399404049 ], [ 482092.84868704539258, 8429947.388232871890068 ], [ 482089.821549408079591, 8429947.385860212147236 ], [ 482089.819343431678135, 8429950.489441538229585 ], [ 482086.791773757548071, 8429950.487178813666105 ], [ 482086.789567491156049, 8429953.590649534016848 ], [ 482080.734858808689751, 8429953.586344499140978 ], [ 482080.732651800848544, 8429956.689815226942301 ], [ 482077.705405054439325, 8429956.687551649287343 ], [ 482077.696467758913059, 8429969.101323813199997 ], [ 482080.723931943590287, 8429969.103366337716579 ], [ 482080.721724957169499, 8429972.206837020814419 ], [ 482107.967933962005191, 8429972.226308606564999 ], [ 482107.948101791902445, 8430000.157101763412356 ], [ 482110.975353798712604, 8430000.159251052886248 ], [ 482110.973150583507959, 8430003.262721631675959 ], [ 482117.027979015547317, 8430003.267019342631102 ], [ 482117.025776628870517, 8430006.370379304513335 ], [ 482120.053137344017159, 8430006.372416976839304 ], [ 482120.050935177481733, 8430009.475998125970364 ], [ 482126.105657182517461, 8430009.480293560773134 ], [ 482126.099053337937221, 8430018.790483947843313 ], [ 482129.126523355778772, 8430018.792631186544895 ], [ 482129.124322481802665, 8430021.895991101861 ], [ 482144.261134790081996, 8430021.906832028180361 ], [ 482144.263333956594579, 8430018.803250938653946 ], [ 482147.290695892472286, 8430018.805617110803723 ], [ 482147.314773911668453, 8429984.667772997170687 ], [ 482156.396847785683349, 8429984.674316482618451 ], [ 482156.381680395861622, 8430006.398278567939997 ], [ 482159.40893316589063, 8430006.40031143464148 ], [ 482159.406735846656375, 8430009.503892533481121 ], [ 482171.516179723897949, 8430009.512352442368865 ], [ 482171.509592578979209, 8430018.822653250768781 ], [ 482174.53695463744225, 8430018.824794955551624 ], [ 482174.534759356, 8430021.92815481312573 ], [ 482216.918048800784163, 8430021.958100598305464 ], [ 482216.911370590620209, 8430031.268401067703962 ], [ 482219.93884190148674, 8430031.270647974684834 ], [ 482219.93665230757324, 8430034.373897150158882 ], [ 482232.046107657020912, 8430034.382549030706286 ] ] ] ] } },
{ "type": "Feature", "properties": { "fid": 24679, "FUENTE": "Servicio Nacional Forestal y de Fauna Silvestre", "DOCREG": null, "FECREG": null, "OBSERV": null, "ZONUTM": 19, "ORIGEN": 0, "REFER": null, "ANNO": "2024", "MES": "11", "DIA": null, "CODPIF": null, "CODRIF": null, "CODOIF": "OIF_PUN_20240914", "CODSIN": null, "SUPIND": 0.8, "NOMDEP": "PUNO", "NOMPRO": "SANDIA", "NOMDIS": "SAN JUAN DEL ORO", "CATDEP": "21", "CATPRO": "2112", "CATDIS": "211207", "VERAFECT": 0.0, "FFECHA": null, "created_us": "MGALAN", "created_da": "2025-06-11", "last_edite": "JMONTALBAN", "last_edi_1": "2025-10-09", "Shape_STAr": 6.6813863162400002e-07, "Shape_STLe": 0.0042448850001400003 }, "geometry": { "type": "MultiPolygon", "coordinates": [ [ [ [ 485867.107667012664024, 8427041.0862892922014 ], [ 485867.11023925076006, 8427036.892989596351981 ], [ 485871.19838175131008, 8427036.895286645740271 ], [ 485871.200737674022093, 8427032.701765628531575 ], [ 485883.465702513, 8427032.70865311101079 ], [ 485883.468056272540707, 8427028.515353288501501 ], [ 485924.351301314600278, 8427028.53804725036025 ], [ 485924.353648263495415, 8427024.3447474706918 ], [ 485928.44189652526984, 8427024.34703529253602 ], [ 485928.45373626757646, 8427003.379762105643749 ], [ 485924.365383471129462, 8427003.377584790810943 ], [ 485924.367730518686585, 8426999.18417433463037 ], [ 485912.102782204630785, 8426999.177306655794382 ], [ 485912.1099374020705, 8426986.597075220197439 ], [ 485908.021479490038473, 8426986.594784567132592 ], [ 485908.023829351004679, 8426982.401263440027833 ], [ 485809.904414202610496, 8426982.346200834959745 ], [ 485809.901940222247504, 8426986.539500843733549 ], [ 485773.107112162397243, 8426986.518712224438787 ], [ 485773.09999524988234, 8426999.099054889753461 ], [ 485760.835046325926669, 8426999.092113437131047 ], [ 485760.832779829856008, 8427003.285634774714708 ], [ 485756.744426933175419, 8427003.283209018409252 ], [ 485756.732551974768285, 8427024.250372851267457 ], [ 485760.820800460001919, 8427024.25268792361021 ], [ 485760.818426181154791, 8427028.446098523214459 ], [ 485801.70156486245105, 8427028.469213001430035 ], [ 485801.699305289541371, 8427032.662623593583703 ], [ 485809.876020625524689, 8427032.667238550260663 ], [ 485809.871180576854385, 8427041.05405948869884 ], [ 485867.107667012664024, 8427041.0862892922014 ] ] ] ] } },
{ "type": "Feature", "properties": { "fid": 24680, "FUENTE": "Servicio Nacional Forestal y de Fauna Silvestre", "DOCREG": null, "FECREG": null, "OBSERV": null, "ZONUTM": 19, "ORIGEN": 0, "REFER": null, "ANNO": "2024", "MES": "11", "DIA": null, "CODPIF": null, "CODRIF": null, "CODOIF": "OIF_PUN_20240915", "CODSIN": null, "SUPIND": 0.83, "NOMDEP": "PUNO", "NOMPRO": "SANDIA", "NOMDIS": "SAN JUAN DEL ORO", "CATDEP": "21", "CATPRO": "2112", "CATDIS": "211207", "VERAFECT": 0.0, "FFECHA": null, "created_us": "MGALAN", "created_da": "2025-06-11", "last_edite": "JMONTALBAN", "last_edi_1": "2025-10-09", "Shape_STAr": 6.9400206394299999e-07, "Shape_STLe": 0.0054581620003500003 }, "geometry": { "type": "MultiPolygon", "coordinates": [ [ [ [ 487563.7843174324953, 8426995.855020210146904 ], [ 487563.788464876590297, 8426987.468092858791351 ], [ 487588.318336799333338, 8426987.480100670829415 ], [ 487588.336855678993743, 8426949.739314226433635 ], [ 487584.2486217712285, 8426949.737296145409346 ], [ 487584.250692114175763, 8426945.54388765245676 ], [ 487567.897543335857335, 8426945.535919148474932 ], [ 487567.895362438343, 8426949.729217011481524 ], [ 487563.807128506537993, 8426949.727195605635643 ], [ 487563.803088847256731, 8426958.114123249426484 ], [ 487543.361480756895617, 8426958.104006089270115 ], [ 487543.359295785368886, 8426962.297303942963481 ], [ 487539.270951842307113, 8426962.295389106497169 ], [ 487539.268981959205121, 8426966.488687057048082 ], [ 487522.915711507899687, 8426966.480578759685159 ], [ 487522.919872607744765, 8426958.093761719763279 ], [ 487518.831637259456329, 8426958.091733012348413 ], [ 487518.835691855289042, 8426949.704915856942534 ], [ 487506.570774107065517, 8426949.698825612664223 ], [ 487506.572857347957324, 8426945.505527622997761 ], [ 487494.308049478160683, 8426945.499431436881423 ], [ 487494.310242816980463, 8426941.305801684036851 ], [ 487490.221902279416099, 8426941.303768252953887 ], [ 487490.223772488068789, 8426937.110470108687878 ], [ 487441.164233287388925, 8426937.085906693711877 ], [ 487441.162138962361496, 8426941.279536578804255 ], [ 487437.073798472178169, 8426941.277273314073682 ], [ 487437.061229098821059, 8426966.43794641084969 ], [ 487428.884647578932345, 8426966.433860385790467 ], [ 487428.882551412796602, 8426970.627158405259252 ], [ 487424.794313795806374, 8426970.625335624441504 ], [ 487424.790120005956851, 8426979.012152824550867 ], [ 487420.701773305539973, 8426979.009997541084886 ], [ 487420.699675681767985, 8426983.203516723588109 ], [ 487416.61143617721973, 8426983.201360834762454 ], [ 487416.605141404317692, 8426995.781697120517492 ], [ 487420.693275128200185, 8426995.783742342144251 ], [ 487420.684884919668548, 8427012.557486984878778 ], [ 487428.861481451254804, 8427012.561575558036566 ], [ 487428.867770023003686, 8426999.981239477172494 ], [ 487449.309520758572035, 8426999.991449492052197 ], [ 487449.311505651916377, 8426995.798040941357613 ], [ 487453.399855154333636, 8426995.799970358610153 ], [ 487453.401947252626996, 8426991.606561854481697 ], [ 487461.578644723515026, 8426991.610750494524837 ], [ 487461.58073551900452, 8426987.417231388390064 ], [ 487465.668975651962683, 8426987.419379962608218 ], [ 487465.664795540214982, 8426995.806196954101324 ], [ 487469.753144969407003, 8426995.808234309777617 ], [ 487469.750947720895056, 8427000.001642728224397 ], [ 487551.517301664105617, 8427000.042249839752913 ], [ 487551.510966564179398, 8427012.622585419565439 ], [ 487567.864266876189504, 8427012.63067489117384 ], [ 487567.872558917850256, 8426995.856930963695049 ], [ 487563.7843174324953, 8426995.855020210146904 ] ] ] ] } },
{ "type": "Feature", "properties": { "fid": 24681, "FUENTE": "Servicio Nacional Forestal y de Fauna Silvestre", "DOCREG": null, "FECREG": null, "OBSERV": null, "ZONUTM": 19, "ORIGEN": 0, "REFER": null, "ANNO": "2024", "MES": "11", "DIA": null, "CODPIF": null, "CODRIF": null, "CODOIF": "OIF_PUN_20240916", "CODSIN": null, "SUPIND": 2.45, "NOMDEP": "PUNO", "NOMPRO": "SANDIA", "NOMDIS": "SAN JUAN DEL ORO", "CATDEP": "21", "CATPRO": "2112", "CATDIS": "211207", "VERAFECT": 0.0, "FFECHA": null, "created_us": "MGALAN", "created_da": "2025-06-11", "last_edite": "JMONTALBAN", "last_edi_1": "2025-10-09", "Shape_STAr": 2.0518337574699999e-06, "Shape_STLe": 0.0100830090005 }, "geometry": { "type": "MultiPolygon", "coordinates": [ [ [ [ 487191.848131592036225, 8426798.577177887782454 ], [ 487191.852403634518851, 8426790.190248375758529 ], [ 487220.470294357044622, 8426790.204809198155999 ], [ 487220.472533467574976, 8426786.011399811133742 ], [ 487224.560741220775526, 8426786.013477243483067 ], [ 487224.565002331568394, 8426777.626658322289586 ], [ 487240.918151497724466, 8426777.634961608797312 ], [ 487240.920279334241059, 8426773.441552152857184 ], [ 487245.008485073456541, 8426773.443515680730343 ], [ 487245.016993804019876, 8426756.669767145067453 ], [ 487249.105412461911328, 8426756.671951331198215 ], [ 487249.111684099130798, 8426744.091722697019577 ], [ 487269.553120146912988, 8426744.101969823241234 ], [ 487269.546750743465964, 8426756.682419518008828 ], [ 487281.81146737432573, 8426756.688626052811742 ], [ 487281.803091126668733, 8426773.462263863533735 ], [ 487285.891296821879223, 8426773.464220743626356 ], [ 487285.889176373369992, 8426777.657851343974471 ], [ 487314.507052089669742, 8426777.672084053978324 ], [ 487314.509275484946556, 8426773.478785339742899 ], [ 487318.597481079399586, 8426773.480847498401999 ], [ 487318.624975162267219, 8426718.966303404420614 ], [ 487322.713387706724461, 8426718.96825447678566 ], [ 487322.702708463941235, 8426739.935412533581257 ], [ 487326.791124363837298, 8426739.937473511323333 ], [ 487326.81003890017746, 8426702.196566550061107 ], [ 487330.89844854560215, 8426702.198848102241755 ], [ 487330.900453657552134, 8426698.005327867344022 ], [ 487339.076948138186708, 8426698.009446438401937 ], [ 487339.078951834933832, 8426693.816036796197295 ], [ 487355.432153833680786, 8426693.824155488982797 ], [ 487355.434262689726893, 8426689.630745908245444 ], [ 487359.522454605670646, 8426689.63280152156949 ], [ 487359.530887357832398, 8426672.859163084998727 ], [ 487355.442590343707707, 8426672.856996800750494 ], [ 487355.444807108491659, 8426668.663587208837271 ], [ 487318.650355208897963, 8426668.645056175068021 ], [ 487318.656808128289413, 8426656.064937667921185 ], [ 487290.038963195460383, 8426656.050266141071916 ], [ 487290.049562327971216, 8426635.083217095583677 ], [ 487298.226252218650188, 8426635.087349222972989 ], [ 487298.228262818418443, 8426630.893939331173897 ], [ 487290.051789996156003, 8426630.889917898923159 ], [ 487290.062389406492002, 8426609.922647271305323 ], [ 487285.973994551517535, 8426609.92069074884057 ], [ 487285.976115165627562, 8426605.727170221507549 ], [ 487269.623185871285386, 8426605.719006003811955 ], [ 487269.620954753831029, 8426609.912305304780602 ], [ 487261.444488688081037, 8426609.90827451646328 ], [ 487261.435990145604592, 8426626.681914232671261 ], [ 487245.083047151390929, 8426626.673623565584421 ], [ 487245.080919746076688, 8426630.867144078016281 ], [ 487224.639683598536067, 8426630.85665518976748 ], [ 487224.641706470632926, 8426626.663245193660259 ], [ 487208.288655361335259, 8426626.655041135847569 ], [ 487208.293138173758052, 8426618.268110685050488 ], [ 487204.204741848923732, 8426618.266140878200531 ], [ 487204.209010336373467, 8426609.87909965775907 ], [ 487200.120723315805662, 8426609.877018634229898 ], [ 487200.122966016700957, 8426605.683719247579575 ], [ 487159.240426080999896, 8426605.662651358172297 ], [ 487159.238284271559678, 8426609.856282645836473 ], [ 487155.149997195054311, 8426609.854194309562445 ], [ 487155.139177506382111, 8426630.821244526654482 ], [ 487138.786231269303244, 8426630.812884744256735 ], [ 487138.788376403739676, 8426626.619364099577069 ], [ 487122.435432756494265, 8426626.611104257404804 ], [ 487122.433177008118946, 8426630.804624866694212 ], [ 487118.344994358310942, 8426630.802530627697706 ], [ 487118.329847224114928, 8426660.156400727108121 ], [ 487122.4182503579068, 8426660.158605637028813 ], [ 487122.415994767507073, 8426664.351904947310686 ], [ 487142.857258871430531, 8426664.362366132438183 ], [ 487142.859511160291731, 8426660.168845653533936 ], [ 487155.12428903504042, 8426660.17522501014173 ], [ 487155.122146672976669, 8426664.368745528161526 ], [ 487175.563410628878046, 8426664.379069527611136 ], [ 487175.556993917096406, 8426676.959409732371569 ], [ 487179.645291935128625, 8426676.961384067311883 ], [ 487179.643153630255256, 8426681.155015097931027 ], [ 487187.819751020579133, 8426681.158961763605475 ], [ 487187.811095825221855, 8426697.93271149136126 ], [ 487191.899397181230597, 8426697.934794403612614 ], [ 487191.897153124969918, 8426702.128314699977636 ], [ 487195.985455214220565, 8426702.130286347121 ], [ 487195.977129234524909, 8426718.904035925865173 ], [ 487191.888716587389354, 8426718.901953648775816 ], [ 487191.884444411494769, 8426727.288773015141487 ], [ 487179.619633772992529, 8426727.282743647694588 ], [ 487179.617495704325847, 8426731.476042723283172 ], [ 487175.529188935062848, 8426731.473847262561321 ], [ 487175.499246055842377, 8426790.181913243606687 ], [ 487179.587562426982913, 8426790.183998037129641 ], [ 487179.583286350010894, 8426798.570816984400153 ], [ 487191.848131592036225, 8426798.577177887782454 ] ] ] ] } }
]
}
