{
"type": "FeatureCollection",
"name": "SJO_fire_2023",
"crs": { "type": "name", "properties": { "name": "urn:ogc:def:crs:EPSG::32719" } },
"features": [
{ "type": "Feature", "properties": { "fid": 1, "FUENTE": "Servicio Nacional Forestal y de Fauna Silvestre", "DOCREG": null, "FECREG": "1899-12-30", "OBSERV": null, "ZONUTM": 19, "ORIGEN": 0, "REFER": null, "ANNO": "2023", "MES": "10", "DIA": null, "CODPIF": null, "CODRIF": null, "CODOIF": "OIF_PUN_20230257", "CODSIN": null, "SUPIND": 6.56, "NOMDEP": "PUNO", "NOMPRO": "SANDIA", "NOMDIS": "SAN JUAN DEL ORO", "CATDEP": "21", "CATPRO": "2112", "CATDIS": "211207", "VERAFECT": 0.0, "FFECHA": null, "created_us": "MGALAN", "created_da": "2025-02-07", "last_edite": "JMONTALBAN", "last_edi_1": "2025-10-09", "Shape_STAr": 5.4931586426500003e-06, "Shape_STLe": 0.018370997404799999 }, "geometry": { "type": "MultiPolygon", "coordinates": [ [ [ [ 493382.086122961540241, 8431840.136460911482573 ], [ 493421.050054999883287, 8431842.166038256138563 ], [ 493423.079744028218556, 8431803.202100940048695 ], [ 493491.266615316155367, 8431806.754015633836389 ], [ 493493.803694716712926, 8431758.049168981611729 ], [ 493474.321736329584382, 8431757.034277787432075 ], [ 493476.351552625535987, 8431718.070334112271667 ], [ 493495.833480992063414, 8431719.085223885253072 ], [ 493494.311195802642033, 8431748.308155188336968 ], [ 493523.534017053549178, 8431749.830407897010446 ], [ 493526.07124469964765, 8431701.12566683627665 ], [ 493565.03508039820008, 8431703.155465258285403 ], [ 493565.542552965867799, 8431693.41444974578917 ], [ 493585.024465551192407, 8431694.42938132211566 ], [ 493581.979777543980163, 8431752.875032940879464 ], [ 493611.20260888512712, 8431754.397405240684748 ], [ 493615.769588459050283, 8431666.72892196662724 ], [ 493635.251482258958276, 8431667.743925442919135 ], [ 493637.281367030285764, 8431628.780188500881195 ], [ 493666.504057623562403, 8431630.302608037367463 ], [ 493665.489192469918635, 8431649.784422451630235 ], [ 493675.230025665368885, 8431650.291851572692394 ], [ 493669.648173835827038, 8431757.441937629133463 ], [ 493679.389048694167286, 8431757.949364945292473 ], [ 493679.89647807640722, 8431748.208458300679922 ], [ 493728.601054994913284, 8431750.745648192241788 ], [ 493730.123284613247961, 8431721.52292513102293 ], [ 493720.382422891445458, 8431721.01551734469831 ], [ 493721.397356172616128, 8431701.533701948821545 ], [ 493760.360883147863206, 8431703.563530325889587 ], [ 493760.868280257214792, 8431693.82262178696692 ], [ 493780.350092452019453, 8431694.83751305565238 ], [ 493781.872474801086355, 8431665.614896543323994 ], [ 493723.427110322052613, 8431662.570070175454021 ], [ 493727.994439808942843, 8431574.902004694566131 ], [ 493698.771702123340219, 8431573.379545468837023 ], [ 493699.786646663094871, 8431553.89772873558104 ], [ 493660.82303168514045, 8431551.867805559188128 ], [ 493660.315598547691479, 8431561.608713267371058 ], [ 493611.610961637808941, 8431559.071168407797813 ], [ 493613.640874947304837, 8431520.107430068776011 ], [ 493594.159095968061592, 8431519.092519925907254 ], [ 493593.651529775175732, 8431528.833426605910063 ], [ 493437.796105151530355, 8431520.713379196822643 ], [ 493435.258615648199338, 8431569.418229190632701 ], [ 493444.99962935980875, 8431569.925747446715832 ], [ 493442.969667586381547, 8431608.889693073928356 ], [ 493413.746690422063693, 8431607.367235511541367 ], [ 493413.239268699893728, 8431617.108248854056001 ], [ 493422.980192525254097, 8431617.615775499492884 ], [ 493420.442881301511079, 8431666.320731250569224 ], [ 493381.478897342865821, 8431664.290819710120559 ], [ 493380.4639186168788, 8431683.772844271734357 ], [ 493390.204975483531598, 8431684.28038346581161 ], [ 493382.086122961540241, 8431840.136460911482573 ] ] ] ] } },
{ "type": "Feature", "properties": { "fid": 2, "FUENTE": "Servicio Nacional Forestal y de Fauna Silvestre", "DOCREG": null, "FECREG": "1899-12-30", "OBSERV": null, "ZONUTM": 19, "ORIGEN": 0, "REFER": null, "ANNO": "2023", "MES": "10", "DIA": null, "CODPIF": null, "CODRIF": null, "CODOIF": "OIF_PUN_20230257", "CODSIN": null, "SUPIND": 2.94, "NOMDEP": "PUNO", "NOMPRO": "SANDIA", "NOMDIS": "SAN JUAN DEL ORO", "CATDEP": "21", "CATPRO": "2112", "CATDIS": "211207", "VERAFECT": 0.0, "FFECHA": null, "created_us": "MGALAN", "created_da": "2025-02-07", "last_edite": "JMONTALBAN", "last_edi_1": "2025-10-09", "Shape_STAr": 2.4636394078000001e-06, "Shape_STLe": 0.0112800335089 }, "geometry": { "type": "MultiPolygon", "coordinates": [ [ [ [ 492665.50452152104117, 8432095.839727262035012 ], [ 492666.011809176008683, 8432086.098509857431054 ], [ 492704.976716443197802, 8432088.127864263951778 ], [ 492707.513397797301877, 8432039.421772640198469 ], [ 492736.737052864278667, 8432040.943718669936061 ], [ 492737.244419890572317, 8432031.202610187232494 ], [ 492756.726886914286297, 8432032.217295449227095 ], [ 492758.248855434823781, 8432002.993636658415198 ], [ 492797.213641002017539, 8432005.023070499300957 ], [ 492795.691609645087738, 8432034.246620764955878 ], [ 492815.173973250959534, 8432035.261260852217674 ], [ 492814.159298799990211, 8432054.743701726198196 ], [ 492872.606443552533165, 8432057.787754971534014 ], [ 492873.621072974172421, 8432038.305311992764473 ], [ 492932.067970293050166, 8432041.349448811262846 ], [ 492935.112146013882011, 8431982.902554132044315 ], [ 492866.924006284971256, 8431979.351018443703651 ], [ 492868.446060039219446, 8431950.127463085576892 ], [ 492790.516654133156408, 8431946.068533133715391 ], [ 492792.038794593536295, 8431916.844981264322996 ], [ 492723.850312147056684, 8431913.293278886005282 ], [ 492721.820829542528372, 8431952.258157148957253 ], [ 492585.443493395403493, 8431945.154963560402393 ], [ 492583.414118362125009, 8431984.119941435754299 ], [ 492632.120345689007081, 8431986.656813347712159 ], [ 492632.6276442585513, 8431976.915595762431622 ], [ 492671.592596249596681, 8431978.945002736523747 ], [ 492668.548565571545623, 8432037.39242173358798 ], [ 492649.066097767150495, 8432036.377668388187885 ], [ 492646.022008656174876, 8432094.825082413852215 ], [ 492665.50452152104117, 8432095.839727262035012 ] ] ] ] } },
{ "type": "Feature", "properties": { "fid": 3, "FUENTE": "Servicio Nacional Forestal y de Fauna Silvestre", "DOCREG": null, "FECREG": "1899-12-30", "OBSERV": null, "ZONUTM": 19, "ORIGEN": 0, "REFER": null, "ANNO": "2023", "MES": "10", "DIA": null, "CODPIF": "PIF_03050_2023", "CODRIF": null, "CODOIF": "OIF_PUN_20230257", "CODSIN": null, "SUPIND": 71.31, "NOMDEP": "PUNO", "NOMPRO": "SANDIA", "NOMDIS": "SAN JUAN DEL ORO", "CATDEP": "21", "CATPRO": "2112", "CATDIS": "211207", "VERAFECT": 0.0, "FFECHA": null, "created_us": "MGALAN", "created_da": "2025-02-07", "last_edite": "JMONTALBAN", "last_edi_1": "2025-10-09", "Shape_STAr": 5.9753727669199997e-05, "Shape_STLe": 0.129543679051 }, "geometry": { "type": "MultiPolygon", "coordinates": [ [ [ [ 493382.086122961540241, 8431840.136460911482573 ], [ 493333.380973594787065, 8431837.599376849830151 ], [ 493335.410689837008249, 8431798.635335277765989 ], [ 493325.669697686971631, 8431798.127885773777962 ], [ 493332.773763913544826, 8431661.753622053191066 ], [ 493313.291777946637012, 8431660.738606074824929 ], [ 493312.784316418343224, 8431670.479727765545249 ], [ 493273.82011809956748, 8431668.449871070683002 ], [ 493275.850021914637182, 8431629.485718425363302 ], [ 493246.626922149443999, 8431627.963288504630327 ], [ 493246.119435508386232, 8431637.704298611730337 ], [ 493207.155184798291884, 8431635.674449227750301 ], [ 493205.632785453868564, 8431664.897587560117245 ], [ 493186.150693765841424, 8431663.88269454613328 ], [ 493182.598542794818059, 8431732.070196440443397 ], [ 493192.339614740049001, 8431732.577590765431523 ], [ 493191.324703190766741, 8431752.059717992320657 ], [ 493152.360387679713313, 8431750.030006099492311 ], [ 493150.838134360965341, 8431779.253249568864703 ], [ 493131.355956322164275, 8431778.238425280898809 ], [ 493132.878232158080209, 8431749.015182875096798 ], [ 493113.396078164281789, 8431748.000233996659517 ], [ 493112.888645746279508, 8431757.741351395845413 ], [ 492937.54850396089023, 8431748.60756853967905 ], [ 492936.026217574137263, 8431777.831021407619119 ], [ 492906.802748665562831, 8431776.30875158123672 ], [ 492905.280533052398823, 8431805.532202178612351 ], [ 492866.315832034219056, 8431803.502601735293865 ], [ 492864.79356802906841, 8431832.726049507036805 ], [ 492874.534780952031724, 8431833.233455795794725 ], [ 492874.027362603927031, 8431842.974678803235292 ], [ 492903.250906985078473, 8431844.496875589713454 ], [ 492902.236091716389637, 8431863.979211812838912 ], [ 492960.682911901792977, 8431867.023505803197622 ], [ 492961.190297190158162, 8431857.282391972839832 ], [ 492990.413755000568926, 8431858.804598251357675 ], [ 492991.428501949529164, 8431839.322369301691651 ], [ 493010.910829972533975, 8431840.33719084598124 ], [ 493007.866413885669317, 8431898.783878782764077 ], [ 493017.607547005813103, 8431899.291340254247189 ], [ 493018.114910898089875, 8431889.550225609913468 ], [ 493047.338301319570746, 8431891.072365708649158 ], [ 493048.860464887227863, 8431861.84901974722743 ], [ 493078.08382487349445, 8431863.371234992519021 ], [ 493076.561587199626956, 8431892.594471912831068 ], [ 493135.008169022272341, 8431895.638803917914629 ], [ 493136.530339149525389, 8431866.415563827380538 ], [ 493146.271462127391715, 8431866.922975677996874 ], [ 493146.778883651713841, 8431857.181858453899622 ], [ 493185.743148502078839, 8431859.211467439308763 ], [ 493186.757960373070091, 8431839.729341944679618 ], [ 493206.240080039482564, 8431840.744123160839081 ], [ 493205.225283180305269, 8431860.226249361410737 ], [ 493244.189449101337232, 8431862.255878604948521 ], [ 493241.145139645494055, 8431920.702148919925094 ], [ 493211.922028005763423, 8431919.180012427270412 ], [ 493210.399834428622853, 8431948.403255509212613 ], [ 493190.917739360709675, 8431947.388477977365255 ], [ 493187.873620831873268, 8432005.834849365055561 ], [ 493236.578866007097531, 8432008.371659649536014 ], [ 493237.086255205096677, 8431998.630652379244566 ], [ 493246.827323213685304, 8431999.137914501130581 ], [ 493247.334600381727796, 8431989.396906951442361 ], [ 493237.593536153668538, 8431988.889534410089254 ], [ 493239.623087744868826, 8431949.925393626093864 ], [ 493278.587178970803507, 8431951.954858362674713 ], [ 493273.006386507477146, 8432059.1062779314816 ], [ 493214.56005816324614, 8432056.062267819419503 ], [ 493212.530675883986987, 8432095.026514325290918 ], [ 493232.012777888041455, 8432096.041163947433233 ], [ 493232.520170484494884, 8432086.300046809017658 ], [ 493271.484363958705217, 8432088.32941079698503 ], [ 493270.469716373947449, 8432107.811425250023603 ], [ 493280.210719222843181, 8432108.318784829229116 ], [ 493273.615791916497983, 8432234.952315721660852 ], [ 493205.428438252129126, 8432231.401367194950581 ], [ 493206.950329372426495, 8432202.178130455315113 ], [ 493187.46825420105597, 8432201.16357253305614 ], [ 493182.902719055709895, 8432288.83316689170897 ], [ 493134.197368795110378, 8432286.296919517219067 ], [ 493135.21191236958839, 8432266.814691435545683 ], [ 493096.247453092131764, 8432264.785671416670084 ], [ 493097.769364631560165, 8432235.562330815941095 ], [ 493010.099292607803363, 8432230.996765101328492 ], [ 493011.621194174513221, 8432201.77342850714922 ], [ 492992.138910633977503, 8432200.758830286562443 ], [ 492990.617094435961917, 8432229.982276460155845 ], [ 492961.393638150359038, 8432228.460404638200998 ], [ 492961.900921836902853, 8432218.71929338388145 ], [ 492952.159774227824528, 8432218.212032292038202 ], [ 492953.17434801638592, 8432198.729699306190014 ], [ 492884.986377812922001, 8432195.178658194839954 ], [ 492884.479064857529011, 8432204.919768197461963 ], [ 492864.996675601752941, 8432203.905182383954525 ], [ 492864.489462643163279, 8432213.646402582526207 ], [ 492874.230606880912092, 8432214.153697533532977 ], [ 492873.215971577796154, 8432233.636027397587895 ], [ 492795.286552221165039, 8432229.577780785039067 ], [ 492792.242888821929228, 8432288.02498134970665 ], [ 492850.690032255253755, 8432291.068529279902577 ], [ 492848.153820368461311, 8432339.774403797462583 ], [ 492818.930244666291401, 8432338.252588849514723 ], [ 492816.901309735607356, 8432377.21735130622983 ], [ 492855.86603022494819, 8432379.246359426528215 ], [ 492856.373249519674573, 8432369.505140580236912 ], [ 492866.114345879119355, 8432370.012438308447599 ], [ 492864.59269820083864, 8432399.235873933881521 ], [ 492874.333914092567284, 8432399.743168450891972 ], [ 492873.826593309815507, 8432409.484276780858636 ], [ 492844.603151240618899, 8432407.962602663785219 ], [ 492843.5887018313515, 8432427.444928683340549 ], [ 492872.812166403280571, 8432428.966603854671121 ], [ 492867.233007585105952, 8432536.11945241689682 ], [ 492906.197653471492231, 8432538.148160193115473 ], [ 492904.676043022598606, 8432567.371704971417785 ], [ 492933.899565117026214, 8432568.893197892233729 ], [ 492930.349422321247403, 8432637.081285666674376 ], [ 492940.090515450632665, 8432637.588443646207452 ], [ 492938.061961745668668, 8432676.552985206246376 ], [ 492957.544287037104368, 8432677.56729131937027 ], [ 492958.558549648325425, 8432658.084964703768492 ], [ 492987.781963933957741, 8432659.606394598260522 ], [ 492986.767615920340177, 8432679.088722243905067 ], [ 493045.214391690271441, 8432682.131482571363449 ], [ 493046.735845594317652, 8432652.908153720200062 ], [ 493075.959150789130945, 8432654.429592113941908 ], [ 493077.480567580612842, 8432625.206260960549116 ], [ 493096.962858305312693, 8432626.220570262521505 ], [ 493095.441356113064103, 8432655.443902432918549 ], [ 493134.405663345125504, 8432657.472477922216058 ], [ 493133.39142862270819, 8432676.954700399190187 ], [ 493094.427091385528911, 8432674.926123511046171 ], [ 493093.919958468934055, 8432684.667233921587467 ], [ 493074.437730641104281, 8432683.652922544628382 ], [ 493072.916307128267363, 8432712.876252260059118 ], [ 493102.139575294801034, 8432714.397659940645099 ], [ 493100.618290121434256, 8432743.6208799444139 ], [ 493081.136016508447938, 8432742.606684574857354 ], [ 493079.614705445477739, 8432771.830013405531645 ], [ 493040.650333516241517, 8432769.801575491204858 ], [ 493040.143178116413765, 8432779.54268422536552 ], [ 493049.884328241285402, 8432780.049799539148808 ], [ 493048.870023809722625, 8432799.53201712295413 ], [ 493009.905611371272244, 8432797.503531973809004 ], [ 493006.863030728069134, 8432855.950289316475391 ], [ 493016.604209733544849, 8432856.45741730928421 ], [ 493014.06880629848456, 8432905.163065565750003 ], [ 492994.586519036558457, 8432904.148914681747556 ], [ 492992.558353806030937, 8432943.113452609628439 ], [ 492865.923381834523752, 8432936.521704405546188 ], [ 492864.40224262024276, 8432965.745127864181995 ], [ 492874.143353518331423, 8432966.252199986949563 ], [ 492867.044999710575212, 8433102.628537805750966 ], [ 492818.339078437013086, 8433100.093569699674845 ], [ 492817.832154936855659, 8433109.834782641381025 ], [ 492788.608552249264903, 8433108.313711885362864 ], [ 492787.594573725713417, 8433127.796136453747749 ], [ 492797.335745788644999, 8433128.303127273917198 ], [ 492795.307799293892458, 8433167.267865560948849 ], [ 492766.08413132611895, 8433165.746879693120718 ], [ 492765.577186473004986, 8433175.488091206178069 ], [ 492755.83599674992729, 8433174.981198828667402 ], [ 492757.863896844210103, 8433136.016353033483028 ], [ 492728.640267095237505, 8433134.495323615148664 ], [ 492726.612322005501483, 8433173.460167312994599 ], [ 492707.129945954075083, 8433172.446238122880459 ], [ 492704.595103616185952, 8433221.152289241552353 ], [ 492724.077517162775621, 8433222.166220178827643 ], [ 492725.598401186871342, 8433192.942588701844215 ], [ 492803.527980224287603, 8433196.998489659279585 ], [ 492804.035018737777136, 8433187.257277637720108 ], [ 492813.776214039186016, 8433187.764261987060308 ], [ 492811.748288616130594, 8433226.728999760001898 ], [ 492870.195342492079362, 8433229.770720455795527 ], [ 492870.702355838031508, 8433220.029618049040437 ], [ 492899.925768641289324, 8433221.55048238299787 ], [ 492901.446772741444875, 8433192.32706249691546 ], [ 492930.670155128813349, 8433193.848002016544342 ], [ 492930.163165396195836, 8433203.589105715975165 ], [ 492939.904369306517765, 8433204.096041372045875 ], [ 492934.327822441817261, 8433311.248731823638082 ], [ 492992.77465372957522, 8433314.290278170257807 ], [ 492994.802413975645322, 8433275.325750861316919 ], [ 493014.284664036065806, 8433276.339678760617971 ], [ 493012.256933789991308, 8433315.304207475855947 ], [ 493051.221390502527356, 8433317.331910347566009 ], [ 493051.72833559504943, 8433307.590805239975452 ], [ 493100.433815170719754, 8433310.12554189376533 ], [ 493104.489428330445662, 8433232.196801809594035 ], [ 493094.748426422069315, 8433231.689819186925888 ], [ 493097.790197107475251, 8433173.243178889155388 ], [ 493078.308023543679155, 8433172.229314999654889 ], [ 493080.335965144040529, 8433133.264887966215611 ], [ 493099.818216590734664, 8433134.27886107377708 ], [ 493101.339200330083258, 8433105.055538916960359 ], [ 493003.928070560796186, 8433099.985528260469437 ], [ 493003.42111079901224, 8433109.726633992046118 ], [ 492993.679942171438597, 8433109.219612054526806 ], [ 492992.158941458095796, 8433138.443038800731301 ], [ 492953.194441486091819, 8433136.415022017434239 ], [ 492952.180373168492224, 8433155.897341573610902 ], [ 492961.921559078560676, 8433156.404268825426698 ], [ 492961.414582046621945, 8433166.14548397064209 ], [ 492951.673392423370387, 8433165.638445941731334 ], [ 492951.16641126939794, 8433175.37966083176434 ], [ 492931.684133517148439, 8433174.36568377353251 ], [ 492935.233154028537683, 8433106.177622746676207 ], [ 492954.715379287139513, 8433107.191597344353795 ], [ 492957.757460653840099, 8433048.744745902717113 ], [ 492986.980895668966696, 8433050.265842387452722 ], [ 492987.994933260139078, 8433030.78363062441349 ], [ 493007.477210143581033, 8433031.797675447538495 ], [ 493009.505358793714549, 8432992.833138985559344 ], [ 493077.693126686615869, 8432996.382393667474389 ], [ 493079.214236423256807, 8432967.159069765359163 ], [ 493098.696467503090389, 8432968.173155043274164 ], [ 493100.217551353212912, 8432938.949939968064427 ], [ 493129.440867023658939, 8432940.471093397587538 ], [ 493134.004536745313089, 8432852.801328649744391 ], [ 493153.486681535607204, 8432853.815482702106237 ], [ 493155.007911516469903, 8432824.592262163758278 ], [ 493184.231097736977972, 8432826.113574054092169 ], [ 493182.709901536232792, 8432855.336685579270124 ], [ 493241.156243666890077, 8432858.379210961982608 ], [ 493239.635003701609094, 8432887.602324908599257 ], [ 493278.599140383885242, 8432889.630675762891769 ], [ 493280.120443257503211, 8432860.407559737563133 ], [ 493270.37936583487317, 8432859.900422878563404 ], [ 493270.886433817213401, 8432850.159421076998115 ], [ 493329.332665705995169, 8432853.201963514089584 ], [ 493330.853907850629184, 8432823.978843878954649 ], [ 493379.559019123204052, 8432826.514374177902937 ], [ 493380.066044361214153, 8432816.773370116949081 ], [ 493419.030081966076978, 8432818.801725950092077 ], [ 493415.480462951236404, 8432886.988646911457181 ], [ 493444.703519886883441, 8432888.509877994656563 ], [ 493443.689300489088055, 8432907.991887336596847 ], [ 493414.4663289602031, 8432906.470655221492052 ], [ 493412.945179130416363, 8432935.693667097017169 ], [ 493422.68618051049998, 8432936.200748762115836 ], [ 493417.61573026253609, 8433033.61067433282733 ], [ 493388.392722623830196, 8433032.089523397386074 ], [ 493380.280694032320753, 8433187.945667004212737 ], [ 493419.244657246221323, 8433189.97357702255249 ], [ 493417.21680305164773, 8433228.937584929168224 ], [ 493387.993785091850441, 8433227.416655933484435 ], [ 493385.459064573631622, 8433276.12166140973568 ], [ 493443.905000545782968, 8433279.163380200043321 ], [ 493444.918909631029237, 8433259.681376155465841 ], [ 493435.177890900638886, 8433259.174414329230785 ], [ 493435.684902588895056, 8433249.433412376791239 ], [ 493474.648856860876549, 8433251.461236378178 ], [ 493476.1697367511224, 8433222.238338485360146 ], [ 493495.65163966093678, 8433223.252337452024221 ], [ 493497.172601600643247, 8433194.029437806457281 ], [ 493526.395479003083892, 8433195.55035119317472 ], [ 493532.479373927984852, 8433078.658849699422717 ], [ 493620.147945054632146, 8433083.221920816227794 ], [ 493617.105883104202803, 8433141.667516577988863 ], [ 493636.587729005783331, 8433142.681517697870731 ], [ 493635.066823406959884, 8433171.904204990714788 ], [ 493674.030456787906587, 8433173.932164218276739 ], [ 493671.495537715847604, 8433222.636755535379052 ], [ 493700.718349907547235, 8433224.157688152045012 ], [ 493699.704423741670325, 8433243.639480946585536 ], [ 493670.481696965405717, 8433242.118547299876809 ], [ 493666.933026685088407, 8433310.305037081241608 ], [ 493637.710224533278961, 8433308.784176481887698 ], [ 493633.654843493015505, 8433386.711552813649178 ], [ 493672.61848460190231, 8433388.739291308447719 ], [ 493673.632329107495025, 8433369.257390996441245 ], [ 493702.855095329752658, 8433370.778209649026394 ], [ 493704.882734841492493, 8433331.814516538754106 ], [ 493724.364622795488685, 8433332.828449174761772 ], [ 493725.378425299655646, 8433313.346656734123826 ], [ 493754.601129671616945, 8433314.867415815591812 ], [ 493761.191526467096992, 8433188.235861016437411 ], [ 493809.895977342210244, 8433190.770778346806765 ], [ 493816.993899179098662, 8433054.398630680516362 ], [ 493778.030439808790106, 8433052.370559401810169 ], [ 493779.044514317763969, 8433032.888760976493359 ], [ 493759.562747920164838, 8433031.874758774414659 ], [ 493763.111995409242809, 8432963.688574818894267 ], [ 493782.593709321110509, 8432964.702574539929628 ], [ 493785.129037751816213, 8432915.998184906318784 ], [ 493775.388145419303328, 8432915.491132501512766 ], [ 493775.895235318166669, 8432905.750232398509979 ], [ 493756.413459272880573, 8432904.736116664484143 ], [ 493757.427652943588328, 8432885.254316927865148 ], [ 493728.20490628934931, 8432883.73311616294086 ], [ 493730.233226223615929, 8432844.769517825916409 ], [ 493720.492362393881194, 8432844.262444101274014 ], [ 493721.506581566121895, 8432824.780644822865725 ], [ 493672.801981811178848, 8432822.245221493765712 ], [ 493671.280704148754012, 8432851.46791766770184 ], [ 493642.058001356606837, 8432849.946727570146322 ], [ 493640.029652807803359, 8432888.910429833456874 ], [ 493620.547786872368306, 8432887.896209146827459 ], [ 493619.533703244815115, 8432907.37811441719532 ], [ 493561.08806936442852, 8432904.335691783577204 ], [ 493563.623388098843861, 8432855.630988620221615 ], [ 493524.659606774919666, 8432853.602635169401765 ], [ 493526.180838550208136, 8432824.379725953564048 ], [ 493565.144682781596202, 8432826.408077305182815 ], [ 493565.65174427308375, 8432816.667180432006717 ], [ 493555.910786419233773, 8432816.160043111070991 ], [ 493558.446322882024106, 8432767.455337285995483 ], [ 493529.223507783026434, 8432765.934016013517976 ], [ 493531.759091169224121, 8432717.229200238361955 ], [ 493541.500010401126929, 8432717.736347069963813 ], [ 493542.007186960952822, 8432707.995339278131723 ], [ 493561.48901904450031, 8432709.009621309116483 ], [ 493565.54614211677108, 8432631.081995574757457 ], [ 493555.805255886225495, 8432630.574857855215669 ], [ 493556.312425298150629, 8432620.833959762006998 ], [ 493585.535181761253625, 8432622.355361133813858 ], [ 493586.549604870670009, 8432602.873563667759299 ], [ 493615.77234218158992, 8432604.395040726289153 ], [ 493617.293886347033549, 8432575.1722317263484 ], [ 493627.034752325736918, 8432575.67934581823647 ], [ 493627.542001143097878, 8432565.938446033746004 ], [ 493724.951075499353465, 8432571.010152626782656 ], [ 493729.51574459951371, 8432483.342145532369614 ], [ 493700.293033344554715, 8432481.820467673242092 ], [ 493701.307470603787806, 8432462.338663939386606 ], [ 493633.12106605846202, 8432458.788211140781641 ], [ 493632.613929241662845, 8432468.529222430661321 ], [ 493642.354754338273779, 8432469.036330813542008 ], [ 493641.340379196219146, 8432488.518242888152599 ], [ 493612.117558872094378, 8432486.996684119105339 ], [ 493610.596013597736601, 8432516.219384148716927 ], [ 493581.373162861680612, 8432514.697900539264083 ], [ 493585.938105782668572, 8432427.029360722750425 ], [ 493556.715251829300541, 8432425.507737413048744 ], [ 493557.729689986270387, 8432406.025827564299107 ], [ 493528.506754007365089, 8432404.504171436652541 ], [ 493530.02849616704043, 8432375.28125237300992 ], [ 493559.251398357679136, 8432376.803017504513264 ], [ 493562.294805009616539, 8432318.357284627854824 ], [ 493523.330990240618121, 8432316.328261168673635 ], [ 493525.867299128382001, 8432267.623429827392101 ], [ 493564.831146754149813, 8432269.652560375630856 ], [ 493565.338413994584698, 8432259.911548921838403 ], [ 493555.597455269191414, 8432259.404299754649401 ], [ 493558.641181180893909, 8432200.958562256768346 ], [ 493578.12305396120064, 8432201.973165301606059 ], [ 493581.166829249239527, 8432143.527533425018191 ], [ 493522.721134659659583, 8432140.483685456216335 ], [ 493523.735696520248894, 8432121.0017727650702 ], [ 493484.771865719754715, 8432118.972466945648193 ], [ 493484.264569959486835, 8432128.713477922603488 ], [ 493474.523555501538794, 8432128.206086575984955 ], [ 493473.508955354045611, 8432147.688107937574387 ], [ 493415.06304716935847, 8432144.644231759011745 ], [ 493417.599657270824537, 8432095.939293654635549 ], [ 493349.412553089030553, 8432092.387958129867911 ], [ 493347.383268559817225, 8432131.352102931588888 ], [ 493357.124281940516084, 8432131.859322169795632 ], [ 493356.617044562473893, 8432141.600330715999007 ], [ 493385.839990228705574, 8432143.122298156842589 ], [ 493382.796194001159165, 8432201.568350829184055 ], [ 493353.573180780222174, 8432200.046490812674165 ], [ 493354.587767558521591, 8432180.564474623650312 ], [ 493325.364780223462731, 8432179.042581809684634 ], [ 493326.886637432209682, 8432149.819447906687856 ], [ 493297.663579328451306, 8432148.297522792592645 ], [ 493302.229447832913138, 8432060.628232168033719 ], [ 493350.93459346605232, 8432063.164931658655405 ], [ 493352.456630474422127, 8432033.941904468461871 ], [ 493332.974572030419949, 8432032.927237015217543 ], [ 493335.003979515400715, 8431993.9630904532969 ], [ 493325.262911912112031, 8431993.455751774832606 ], [ 493327.79978950752411, 8431944.750595329329371 ], [ 493347.281779639248271, 8431945.765377730131149 ], [ 493348.803922337829135, 8431916.542348209768534 ], [ 493329.321846818027552, 8431915.527566846460104 ], [ 493332.366167177155148, 8431857.081397173926234 ], [ 493381.071246166189667, 8431859.618482971563935 ], [ 493382.086122961540241, 8431840.136460911482573 ] ], [ [ 493272.093976246658713, 8432264.175444845110178 ], [ 493271.079430610814597, 8432283.657456800341606 ], [ 493329.525645076180808, 8432286.701111882925034 ], [ 493328.003891354426742, 8432315.924132388085127 ], [ 493357.22692950401688, 8432317.445910705253482 ], [ 493355.705206173413899, 8432346.66893208399415 ], [ 493326.482134232472163, 8432345.147262772545218 ], [ 493325.467627638427075, 8432364.629275564104319 ], [ 493335.208730681915767, 8432365.136502802371979 ], [ 493333.179727982496843, 8432404.100638719275594 ], [ 493381.884784321999177, 8432406.636721869930625 ], [ 493380.870426160225179, 8432426.118735847994685 ], [ 493419.834400062332861, 8432428.147646645084023 ], [ 493416.79108292987803, 8432486.593580208718777 ], [ 493436.273063205066137, 8432487.607959846034646 ], [ 493435.258744070248213, 8432507.089974662289023 ], [ 493444.999688319396228, 8432507.597159178927541 ], [ 493444.492477987951133, 8432517.338166626170278 ], [ 493415.26952720747795, 8432515.816601235419512 ], [ 493413.240745066897944, 8432554.780517548322678 ], [ 493422.981815225910395, 8432555.287710499018431 ], [ 493421.967483352171257, 8432574.769723841920495 ], [ 493353.780379175965209, 8432571.219513047486544 ], [ 493356.823527843458578, 8432512.773479474708438 ], [ 493327.60047928232234, 8432511.251812504604459 ], [ 493330.136428534751758, 8432462.546784963458776 ], [ 493300.913331706309691, 8432461.025086760520935 ], [ 493301.927752876887098, 8432441.543076252564788 ], [ 493292.186728852568194, 8432441.035836348310113 ], [ 493292.693996581772808, 8432431.294831158593297 ], [ 493273.211849254206754, 8432430.280340390279889 ], [ 493276.255277044081595, 8432371.834088465198874 ], [ 493247.032180310226977, 8432370.312437886372209 ], [ 493247.539356303226668, 8432360.571322394534945 ], [ 493237.798364507674705, 8432360.064171932637691 ], [ 493242.87089658115292, 8432262.65356757864356 ], [ 493272.093976246658713, 8432264.175444845110178 ] ] ] ] } },
{ "type": "Feature", "properties": { "fid": 4, "FUENTE": "Servicio Nacional Forestal y de Fauna Silvestre", "DOCREG": null, "FECREG": "1899-12-30", "OBSERV": null, "ZONUTM": 19, "ORIGEN": 0, "REFER": null, "ANNO": "2023", "MES": "10", "DIA": null, "CODPIF": "PIF_01950_2023", "CODRIF": null, "CODOIF": "OIF_PUN_20230192", "CODSIN": null, "SUPIND": 40.83, "NOMDEP": "PUNO", "NOMPRO": "SANDIA", "NOMDIS": "SAN JUAN DEL ORO", "CATDEP": "21", "CATPRO": "2112", "CATDIS": "211207", "VERAFECT": 0.0, "FFECHA": null, "created_us": "MGALAN", "created_da": "2025-02-07", "last_edite": "JMONTALBAN", "last_edi_1": "2025-10-09", "Shape_STAr": 3.4215204626e-05, "Shape_STLe": 0.080093758161000006 }, "geometry": { "type": "MultiPolygon", "coordinates": [ [ [ [ 491146.911341919039842, 8433872.691567003726959 ], [ 491147.418060596566647, 8433862.949836617335677 ], [ 491186.384955466201063, 8433864.976984085515141 ], [ 491188.918792057607789, 8433816.268438261002302 ], [ 491169.435327414423227, 8433815.254873743280768 ], [ 491170.448960820795037, 8433795.771411331370473 ], [ 491111.998620693280827, 8433792.730740204453468 ], [ 491115.546159753517713, 8433724.538626343011856 ], [ 491057.095774528570473, 8433721.497826984152198 ], [ 491056.589023511856794, 8433731.239556772634387 ], [ 491046.847218225419056, 8433730.732780389487743 ], [ 491048.367697303299792, 8433701.507480787113309 ], [ 491009.400632795470301, 8433699.48022916354239 ], [ 491008.893863721459638, 8433709.222068851813674 ], [ 490989.410380155022722, 8433708.208364861086011 ], [ 490991.437592029280495, 8433669.241338826715946 ], [ 490942.728802624740638, 8433666.707182316109538 ], [ 490942.221900496282615, 8433676.449021009728312 ], [ 490903.254774244269356, 8433674.421715902164578 ], [ 490904.268500170845073, 8433654.93815035559237 ], [ 490884.784846340771765, 8433653.924475889652967 ], [ 490886.812215923098847, 8433614.957234574481845 ], [ 490847.844972665188834, 8433612.929843245074153 ], [ 490849.365567966655362, 8433583.704441135749221 ], [ 490771.430973249312956, 8433579.649592626839876 ], [ 490770.924114482128061, 8433589.391428921371698 ], [ 490761.182261034206022, 8433588.884652534499764 ], [ 490764.223430658166762, 8433530.4336345680058 ], [ 490686.288688651053235, 8433526.378632633015513 ], [ 490687.302361015579663, 8433506.894962027668953 ], [ 490648.334974877769127, 8433504.86737216450274 ], [ 490649.855579665105324, 8433475.641757117584348 ], [ 490688.823028715036344, 8433477.669344982132316 ], [ 490689.836805320286658, 8433458.185673616826534 ], [ 490680.095003970374819, 8433457.67875500023365 ], [ 490681.108786657394376, 8433438.194973062723875 ], [ 490671.366885224357247, 8433437.688161589205265 ], [ 490670.859990335186012, 8433447.429997129365802 ], [ 490592.9249781453982, 8433443.374815678223968 ], [ 490592.4180528971483, 8433453.116649780422449 ], [ 490602.15995884599397, 8433453.623602271080017 ], [ 490601.146222606068477, 8433473.107381213456392 ], [ 490552.436766825965606, 8433470.572911266237497 ], [ 490551.929825431318022, 8433480.314855046570301 ], [ 490473.994512544129975, 8433476.259749500080943 ], [ 490475.515209803998005, 8433447.033921910449862 ], [ 490417.063592169608455, 8433443.992631338536739 ], [ 490418.077361572824884, 8433424.508747886866331 ], [ 490398.593471009633504, 8433423.494918080046773 ], [ 490400.621143380645663, 8433384.527041023597121 ], [ 490371.395193385775201, 8433383.006380679085851 ], [ 490370.888291581533849, 8433392.748321913182735 ], [ 490331.920456311956514, 8433390.720684636384249 ], [ 490333.441205684328452, 8433361.494752129539847 ], [ 490323.699232070241123, 8433360.987806254997849 ], [ 490323.192312238912564, 8433370.729746801778674 ], [ 490313.450335199129768, 8433370.222907599061728 ], [ 490315.478027401026338, 8433331.254924412816763 ], [ 490266.768114929669537, 8433328.72034353390336 ], [ 490266.261173693928868, 8433338.462283303961158 ], [ 490256.519210149126593, 8433337.955311451107264 ], [ 490259.560874697286636, 8433279.503340860828757 ], [ 490220.592790420807432, 8433277.475530352443457 ], [ 490225.155505538685247, 8433189.797519948333502 ], [ 490166.703430827241391, 8433186.75564512424171 ], [ 490169.238312397617847, 8433138.045506445690989 ], [ 490198.464399728749413, 8433139.56651359051466 ], [ 490200.492361302662175, 8433100.598421353846788 ], [ 490181.008404664578848, 8433099.58442173153162 ], [ 490180.5013263723813, 8433109.326472189277411 ], [ 490170.759344853111543, 8433108.819466564804316 ], [ 490173.801399939926341, 8433050.367274073883891 ], [ 490203.02749386447249, 8433051.88838729634881 ], [ 490204.041522738174535, 8433032.40439522638917 ], [ 490213.783475348958746, 8433032.911388214677572 ], [ 490214.290539464855101, 8433023.169336611405015 ], [ 490224.032596556760836, 8433023.676436306908727 ], [ 490227.074735157540999, 8432965.224345149472356 ], [ 490197.84874032321386, 8432963.70325905829668 ], [ 490198.862878073763568, 8432944.219155352562666 ], [ 490140.410727509879507, 8432941.176883552223444 ], [ 490139.396652644500136, 8432960.66098527982831 ], [ 490168.622748833731748, 8432962.182028518989682 ], [ 490167.101613610400818, 8432991.408182011917233 ], [ 490147.617526653688401, 8432990.394045336171985 ], [ 490147.110437374736648, 8433000.136095987632871 ], [ 490137.368390676972922, 8432999.629077140241861 ], [ 490135.847325259877834, 8433028.855117602273822 ], [ 490116.363210451207124, 8433027.841067604720592 ], [ 490115.349221919372212, 8433047.325167272239923 ], [ 490086.123029907874297, 8433045.804173648357391 ], [ 490083.080988032917958, 8433104.256467703729868 ], [ 489985.660362477065064, 8433099.186418760567904 ], [ 489985.153316711948719, 8433108.928465805947781 ], [ 489936.442890938313212, 8433106.393465301021934 ], [ 489934.92191095429007, 8433135.619714122265577 ], [ 489915.437720685324166, 8433134.605730816721916 ], [ 489912.395813726936467, 8433193.05833494104445 ], [ 489795.490324647515081, 8433186.974660003557801 ], [ 489793.462379101023544, 8433225.943274367600679 ], [ 489773.978124011540785, 8433224.929292988032103 ], [ 489770.936311620520428, 8433283.382210211828351 ], [ 489741.709864143689629, 8433281.861372798681259 ], [ 489739.175223987956997, 8433330.57213256880641 ], [ 489709.948723496112507, 8433329.051369385793805 ], [ 489706.907183649484068, 8433387.504386115819216 ], [ 489687.422806794405915, 8433386.490560047328472 ], [ 489688.436597957450431, 8433367.006148364394903 ], [ 489649.467878637195099, 8433364.978452438488603 ], [ 489648.454057467635721, 8433384.462862780317664 ], [ 489628.969684951473027, 8433383.449102176353335 ], [ 489626.435142135072965, 8433432.160069698467851 ], [ 489636.177346960641444, 8433432.666952718049288 ], [ 489635.670484239642974, 8433442.409101927652955 ], [ 489538.248414886009414, 8433437.340100834146142 ], [ 489537.741514250694308, 8433447.08235889300704 ], [ 489459.803531167970505, 8433443.027217565104365 ], [ 489458.282844983041286, 8433472.253987291827798 ], [ 489409.571655524603557, 8433469.719523688778281 ], [ 489409.06470467930194, 8433479.461779257282615 ], [ 489399.322485698270611, 8433478.954919336363673 ], [ 489397.801835550286341, 8433508.181685151532292 ], [ 489349.090474018361419, 8433505.647326543927193 ], [ 489348.076739881245885, 8433525.13183505833149 ], [ 489328.59216119121993, 8433524.118175206705928 ], [ 489328.085286073444877, 8433533.860429011285305 ], [ 489308.600701387040317, 8433532.846643194556236 ], [ 489308.093818358785938, 8433542.589007176458836 ], [ 489317.83606031909585, 8433543.095902111381292 ], [ 489316.822408679232467, 8433562.580409033223987 ], [ 489346.04926719784271, 8433564.100961728021502 ], [ 489345.035528652893845, 8433583.585579883307219 ], [ 489364.520045847864822, 8433584.599337244406343 ], [ 489362.99956579611171, 8433613.826099041849375 ], [ 489421.453193681663834, 8433616.86717327684164 ], [ 489422.973714140243828, 8433587.640408517792821 ], [ 489442.458237168437336, 8433588.654105708003044 ], [ 489442.965069097059313, 8433578.911850301548839 ], [ 489452.707327403768431, 8433579.418693091720343 ], [ 489451.186733876820654, 8433608.645459543913603 ], [ 489460.929003800323699, 8433609.15229906886816 ], [ 489458.901699559763074, 8433648.121320631355047 ], [ 489566.066210312419571, 8433653.696424962952733 ], [ 489569.614131670270581, 8433585.500955495983362 ], [ 489628.067391596676316, 8433588.541994174942374 ], [ 489629.587887169385795, 8433559.315439218655229 ], [ 489688.040984736930113, 8433562.356560658663511 ], [ 489689.561625307949726, 8433533.13011265732348 ], [ 489709.046007542754523, 8433534.143825598061085 ], [ 489709.552843534445856, 8433524.401675751432776 ], [ 489738.77935441758018, 8433525.922216434031725 ], [ 489736.245011204795446, 8433574.633077884092927 ], [ 489745.987165008438751, 8433575.139918081462383 ], [ 489745.480342198163271, 8433584.882068196311593 ], [ 489794.191027500084601, 8433587.41632417216897 ], [ 489792.670505224261433, 8433616.64277652464807 ], [ 489831.63908345613163, 8433618.670137748122215 ], [ 489830.118602948146872, 8433647.896480813622475 ], [ 489878.829201334447134, 8433650.430683132261038 ], [ 489887.952668926212937, 8433475.072599351406097 ], [ 489848.984200566657819, 8433473.045102179050446 ], [ 489850.504866025527008, 8433443.818643836304545 ], [ 489831.020548613625579, 8433442.804928949102759 ], [ 489834.062022572266869, 8433384.352122776210308 ], [ 489824.319940889370628, 8433383.84520542435348 ], [ 489829.896109577384777, 8433276.681740375235677 ], [ 489849.380406565032899, 8433277.695678308606148 ], [ 489847.859532651375048, 8433306.922029500827193 ], [ 489886.828068152768537, 8433308.949751611799002 ], [ 489888.348897057527211, 8433279.723398394882679 ], [ 489917.575241744809318, 8433281.244287209585309 ], [ 489919.602999444410671, 8433242.275886882096529 ], [ 489968.313470221182797, 8433244.810696702450514 ], [ 489971.355360946734436, 8433186.358199529349804 ], [ 490029.807738130912185, 8433189.399973830208182 ], [ 490026.765982436423656, 8433247.852477068081498 ], [ 489997.539778634614777, 8433246.331603830680251 ], [ 489993.991112182324287, 8433314.526146989315748 ], [ 490023.217286883038469, 8433316.04691312648356 ], [ 490022.203432259964757, 8433335.531005430966616 ], [ 490061.171700271544978, 8433337.55878976918757 ], [ 490062.692544558900408, 8433308.332649217918515 ], [ 490111.402831549639814, 8433310.867292502894998 ], [ 490110.388937256939244, 8433330.351387951523066 ], [ 490139.615028445376083, 8433331.872129762545228 ], [ 490138.094271980866324, 8433361.098273886367679 ], [ 490206.288396400166675, 8433364.646764494478703 ], [ 490205.274573507369496, 8433384.130751930177212 ], [ 490224.758534843625966, 8433385.144620584324002 ], [ 490222.730914679239504, 8433424.112595859915018 ], [ 490261.698901805269998, 8433426.140180148184299 ], [ 490256.123243075271603, 8433533.302168427035213 ], [ 490275.607213448907714, 8433534.31588638946414 ], [ 490276.114046581147704, 8433524.573947824537754 ], [ 490363.791843630955555, 8433529.135712169110775 ], [ 490361.764428052061703, 8433568.103582557290792 ], [ 490371.506374343880452, 8433568.610513143241405 ], [ 490370.492671881278511, 8433588.094392903149128 ], [ 490389.976580605842173, 8433589.108132870867848 ], [ 490390.483370603702497, 8433579.366082075983286 ], [ 490419.709225173864979, 8433580.886718615889549 ], [ 490417.681892319989856, 8433619.854480884969234 ], [ 490330.004203368909657, 8433615.292906038463116 ], [ 490331.524750883108936, 8433586.066978408023715 ], [ 490282.81488481577253, 8433583.532763941213489 ], [ 490281.294388965994585, 8433612.75868908315897 ], [ 490271.552319274225738, 8433612.251834366470575 ], [ 490271.045482817396987, 8433621.99388281442225 ], [ 490261.303517654770985, 8433621.487024217844009 ], [ 490259.782994922250509, 8433650.712947394698858 ], [ 490337.718924437067471, 8433654.767604419961572 ], [ 490336.705192863824777, 8433674.251592332497239 ], [ 490375.673034531122539, 8433676.278887206688523 ], [ 490376.179939437308349, 8433666.536947932094336 ], [ 490395.66380102140829, 8433667.550572445616126 ], [ 490394.650221658230294, 8433687.034451676532626 ], [ 490404.392106543527916, 8433687.541258618235588 ], [ 490403.378533217124641, 8433707.02513787150383 ], [ 490422.862426957231946, 8433708.038851782679558 ], [ 490421.84875925508095, 8433727.52273135446012 ], [ 490451.074571222648956, 8433729.043109126389027 ], [ 490449.554154622950591, 8433758.268929434940219 ], [ 490459.296067956252955, 8433758.775714999064803 ], [ 490457.775767231709324, 8433788.001535149291158 ], [ 490477.259617496572901, 8433789.015096014365554 ], [ 490476.24598893529037, 8433808.498976357281208 ], [ 490505.471789575123694, 8433810.019290478900075 ], [ 490504.45818208734272, 8433829.503060920163989 ], [ 490514.20012382772984, 8433830.009935716167092 ], [ 490513.186630285345018, 8433849.493706218898296 ], [ 490542.412372410355601, 8433851.013977229595184 ], [ 490545.452997021027841, 8433792.562551200389862 ], [ 490564.936853854625951, 8433793.576155001297593 ], [ 490568.484359925088938, 8433725.38289244286716 ], [ 490597.710069170338102, 8433726.903321685269475 ], [ 490594.162533964728937, 8433795.096477163955569 ], [ 490623.388109429040924, 8433796.616876050829887 ], [ 490623.894920835329685, 8433786.875043835490942 ], [ 490760.280966820078902, 8433793.96997326426208 ], [ 490757.74706063629128, 8433842.679145401343703 ], [ 490845.423448449466377, 8433847.240113727748394 ], [ 490844.409886142530013, 8433866.723785070702434 ], [ 490902.860693027905654, 8433869.764300309121609 ], [ 490903.874318226182368, 8433850.280737556517124 ], [ 490923.357800535624847, 8433851.294285574927926 ], [ 490923.864605099894106, 8433841.552448440343142 ], [ 490933.606343040999491, 8433842.059271942824125 ], [ 490935.126743261353113, 8433812.833870155736804 ], [ 490974.093869567615911, 8433814.861013991758227 ], [ 490972.573514373332728, 8433844.086307235062122 ], [ 491021.282324904459529, 8433846.620182607322931 ], [ 491020.26879045565147, 8433866.10363900847733 ], [ 491146.911341919039842, 8433872.691567003726959 ] ], [ [ 490511.046550787577871, 8433702.858160279691219 ], [ 490512.567001183051616, 8433673.632446130737662 ], [ 490561.276521602645516, 8433676.166547782719135 ], [ 490559.7561274470645, 8433705.392264476045966 ], [ 490511.046550787577871, 8433702.858160279691219 ] ] ] ] } }
]
}
